[{"name":"北京市","area":[{"name":"东城区","zipcode":"100010"},{"name":"西城区","zipcode":"100032"},{"name":"朝阳区","zipcode":"100020"},{"name":"丰台区","zipcode":"100071"},{"name":"石景山区","zipcode":"100043"},{"name":"海淀区","zipcode":"100089"},{"name":"门头沟区","zipcode":"102300"},{"name":"房山区","zipcode":"102488"},{"name":"通州区","zipcode":"101149"},{"name":"顺义区","zipcode":"101300"},{"name":"昌平区","zipcode":"102200"},{"name":"大兴区","zipcode":"102600"},{"name":"怀柔区","zipcode":"101400"},{"name":"平谷区","zipcode":"101200"},{"name":"密云区","zipcode":"101500"},{"name":"延庆区","zipcode":"102100"}]},{"name":"天津市","area":[{"name":"河西区","zipcode":"300202"},{"name":"和平区","zipcode":"300041"},{"name":"河东区","zipcode":"300171"},{"name":"南开区","zipcode":"300110"},{"name":"河北区","zipcode":"300143"},{"name":"红桥区","zipcode":"300131"},{"name":"东丽区","zipcode":"300300"},{"name":"西青区","zipcode":"300380"},{"name":"津南区","zipcode":"300350"},{"name":"北辰区","zipcode":"300400"},{"name":"武清区","zipcode":"301700"},{"name":"宝坻区","zipcode":"301800"},{"name":"滨海新区","zipcode":"300451"},{"name":"宁河区","zipcode":"301500"},{"name":"静海区","zipcode":"301600"},{"name":"蓟州区","zipcode":"301900"}]},{"name":"上海市","area":[{"name":"黄浦区","zipcode":"200001"},{"name":"徐汇区","zipcode":"200030"},{"name":"长宁区","zipcode":"200050"},{"name":"静安区","zipcode":"200040"},{"name":"普陀区","zipcode":"200333"},{"name":"虹口区","zipcode":"200086"},{"name":"杨浦区","zipcode":"200082"},{"name":"闵行区","zipcode":"201100"},{"name":"宝山区","zipcode":"155131"},{"name":"嘉定区","zipcode":"201800"},{"name":"浦东新区","zipcode":"200135"},{"name":"金山区","zipcode":"200540"},{"name":"松江区","zipcode":"201600"},{"name":"青浦区","zipcode":"201700"},{"name":"奉贤区","zipcode":"201400"},{"name":"崇明区","zipcode":"202150"}]},{"name":"重庆市","area":[{"name":"渝中区","zipcode":"400010"},{"name":"万州区","zipcode":"404000"},{"name":"涪陵区","zipcode":"408000"},{"name":"大渡口区","zipcode":"400080"},{"name":"江北区","zipcode":"315020"},{"name":"沙坪坝区","zipcode":"400030"},{"name":"九龙坡区","zipcode":"400050"},{"name":"南岸区","zipcode":"400064"},{"name":"北碚区","zipcode":"400700"},{"name":"綦江区","zipcode":"400800"},{"name":"大足区","zipcode":"400900"},{"name":"渝北区","zipcode":"401120"},{"name":"巴南区","zipcode":"401320"},{"name":"黔江区","zipcode":"409700"},{"name":"长寿区","zipcode":"401220"},{"name":"江津区","zipcode":"402260"},{"name":"合川区","zipcode":"401520"},{"name":"永川区","zipcode":"402160"},{"name":"南川区","zipcode":"408400"},{"name":"璧山区","zipcode":"402760"},{"name":"铜梁区","zipcode":"402560"},{"name":"潼南区","zipcode":"402660"},{"name":"荣昌区","zipcode":"402460"},{"name":"开州区","zipcode":"405400"},{"name":"梁平区","zipcode":"405200"},{"name":"武隆区","zipcode":"408500"},{"name":"城口县","zipcode":"405900"},{"name":"丰都县","zipcode":"408200"},{"name":"垫江县","zipcode":"408300"},{"name":"忠县","zipcode":"404300"},{"name":"云阳县","zipcode":"404500"},{"name":"奉节县","zipcode":"404600"},{"name":"巫山县","zipcode":"404700"},{"name":"巫溪县","zipcode":"405800"},{"name":"石柱土家族自治县","zipcode":"409100"},{"name":"秀山土家族苗族自治县","zipcode":"409900"},{"name":"酉阳土家族苗族自治县","zipcode":"409800"},{"name":"彭水苗族土家族自治县","zipcode":"409600"}]},{"name":"河北省","city":[{"name":"石家庄市","area":[{"name":"长安区","zipcode":"050011"},{"name":"桥西区","zipcode":"050091"},{"name":"新华区","zipcode":"050051"},{"name":"井陉矿区","zipcode":"050100"},{"name":"裕华区","zipcode":"050031"},{"name":"藁城区","zipcode":"052160"},{"name":"鹿泉区","zipcode":"050200"},{"name":"栾城区","zipcode":"051430"},{"name":"辛集市","zipcode":"052360"},{"name":"晋州市","zipcode":"052260"},{"name":"新乐市","zipcode":"050700"},{"name":"井陉县","zipcode":"050300"},{"name":"正定县","zipcode":"050800"},{"name":"行唐县","zipcode":"050600"},{"name":"灵寿县","zipcode":"050500"},{"name":"高邑县","zipcode":"051330"},{"name":"深泽县","zipcode":"052560"},{"name":"赞皇县","zipcode":"051230"},{"name":"无极县","zipcode":"052460"},{"name":"平山县","zipcode":"050400"},{"name":"元氏县","zipcode":"051130"},{"name":"赵县","zipcode":"051530"}]},{"name":"唐山市","area":[{"name":"路北区","zipcode":"063000"},{"name":"路南区","zipcode":"063000"},{"name":"古冶区","zipcode":"063100"},{"name":"开平区","zipcode":"063021"},{"name":"丰南区","zipcode":"063300"},{"name":"丰润区","zipcode":"064000"},{"name":"曹妃甸区","zipcode":"063200"},{"name":"遵化市","zipcode":"064200"},{"name":"迁安市","zipcode":"064400"},{"name":"滦县","zipcode":"063700"},{"name":"滦南县","zipcode":"063500"},{"name":"乐亭县","zipcode":"063600"},{"name":"迁西县","zipcode":"064300"},{"name":"玉田县","zipcode":"064100"}]},{"name":"秦皇岛市","area":[{"name":"海港区","zipcode":"066000"},{"name":"山海关区","zipcode":"066200"},{"name":"北戴河区","zipcode":"066100"},{"name":"抚宁区","zipcode":"066300"},{"name":"昌黎县","zipcode":"066600"},{"name":"卢龙县","zipcode":"066400"},{"name":"青龙满族自治县","zipcode":"066500"}]},{"name":"邯郸市","area":[{"name":"丛台区","zipcode":"056002"},{"name":"邯山区","zipcode":"056001"},{"name":"复兴区","zipcode":"056003"},{"name":"峰峰矿区","zipcode":"056200"},{"name":"肥乡区","zipcode":"057550"},{"name":"永年区","zipcode":"057150"},{"name":"武安市","zipcode":"056300"},{"name":"临漳县","zipcode":"056600"},{"name":"成安县","zipcode":"056700"},{"name":"大名县","zipcode":"056900"},{"name":"涉县","zipcode":"056400"},{"name":"磁县","zipcode":"056500"},{"name":"邱县","zipcode":"057450"},{"name":"鸡泽县","zipcode":"057350"},{"name":"广平县","zipcode":"057650"},{"name":"馆陶县","zipcode":"057750"},{"name":"魏县","zipcode":"056800"},{"name":"曲周县","zipcode":"057250"}]},{"name":"邢台市","area":[{"name":"桥东区","zipcode":"054001"},{"name":"桥西区","zipcode":"050091"},{"name":"南宫市","zipcode":"055750"},{"name":"沙河市","zipcode":"054100"},{"name":"邢台县","zipcode":"054001"},{"name":"临城县","zipcode":"054300"},{"name":"内丘县","zipcode":"054200"},{"name":"柏乡县","zipcode":"055450"},{"name":"隆尧县","zipcode":"055350"},{"name":"任县","zipcode":"055150"},{"name":"南和县","zipcode":"054400"},{"name":"宁晋县","zipcode":"055550"},{"name":"巨鹿县","zipcode":"055250"},{"name":"新河县","zipcode":"055650"},{"name":"广宗县","zipcode":"054600"},{"name":"平乡县","zipcode":"054500"},{"name":"威县","zipcode":"054700"},{"name":"清河县","zipcode":"054800"},{"name":"临西县","zipcode":"054999"}]},{"name":"保定市","area":[{"name":"竞秀区","zipcode":"071051"},{"name":"莲池区","zipcode":"071000"},{"name":"满城区","zipcode":"072150"},{"name":"清苑区","zipcode":"071100"},{"name":"徐水区","zipcode":"072550"},{"name":"涿州市","zipcode":"072750"},{"name":"定州市","zipcode":"073000"},{"name":"安国市","zipcode":"071200"},{"name":"高碑店市","zipcode":"074000"},{"name":"涞水县","zipcode":"074100"},{"name":"阜平县","zipcode":"073200"},{"name":"定兴县","zipcode":"072650"},{"name":"唐县","zipcode":"072350"},{"name":"高阳县","zipcode":"071500"},{"name":"容城县","zipcode":"071700"},{"name":"涞源县","zipcode":"074300"},{"name":"望都县","zipcode":"072450"},{"name":"安新县","zipcode":"071600"},{"name":"易县","zipcode":"074200"},{"name":"曲阳县","zipcode":"073100"},{"name":"蠡县","zipcode":"071400"},{"name":"顺平县","zipcode":"072250"},{"name":"博野县","zipcode":"071300"},{"name":"雄县","zipcode":"071800"}]},{"name":"张家口市","area":[{"name":"桥西区","zipcode":"050091"},{"name":"桥东区","zipcode":"054001"},{"name":"宣化区","zipcode":"075100"},{"name":"下花园区","zipcode":"075300"},{"name":"万全区","zipcode":"076250"},{"name":"崇礼区","zipcode":"076350"},{"name":"张北县","zipcode":"076450"},{"name":"康保县","zipcode":"076650"},{"name":"沽源县","zipcode":"076550"},{"name":"尚义县","zipcode":"076750"},{"name":"蔚县","zipcode":"075700"},{"name":"阳原县","zipcode":"075800"},{"name":"怀安县","zipcode":"076150"},{"name":"怀来县","zipcode":"075400"},{"name":"涿鹿县","zipcode":"075600"},{"name":"赤城县","zipcode":"075500"}]},{"name":"承德市","area":[{"name":"双桥区","zipcode":"067000"},{"name":"双滦区","zipcode":"067001"},{"name":"鹰手营子矿区","zipcode":"067200"},{"name":"平泉市","zipcode":"067500"},{"name":"承德县","zipcode":"067400"},{"name":"兴隆县","zipcode":"067300"},{"name":"滦平县","zipcode":"068250"},{"name":"隆化县","zipcode":"068150"},{"name":"丰宁满族自治县","zipcode":"068350"},{"name":"宽城满族自治县","zipcode":"067600"},{"name":"围场满族蒙古族自治县","zipcode":"068450"}]},{"name":"沧州市","area":[{"name":"运河区","zipcode":"061001"},{"name":"新华区","zipcode":"050051"},{"name":"泊头市","zipcode":"062150"},{"name":"任丘市","zipcode":"062550"},{"name":"黄骅市","zipcode":"061100"},{"name":"河间市","zipcode":"062450"},{"name":"沧县","zipcode":"061000"},{"name":"青县","zipcode":"062650"},{"name":"东光县","zipcode":"061600"},{"name":"海兴县","zipcode":"061200"},{"name":"盐山县","zipcode":"061300"},{"name":"肃宁县","zipcode":"062350"},{"name":"南皮县","zipcode":"061500"},{"name":"吴桥县","zipcode":"061800"},{"name":"献县","zipcode":"062250"},{"name":"孟村回族自治县","zipcode":"061400"}]},{"name":"廊坊市","area":[{"name":"广阳区","zipcode":"065000"},{"name":"安次区","zipcode":"065000"},{"name":"霸州市","zipcode":"065700"},{"name":"三河市","zipcode":"065200"},{"name":"固安县","zipcode":"065500"},{"name":"永清县","zipcode":"065600"},{"name":"香河县","zipcode":"065400"},{"name":"大城县","zipcode":"065900"},{"name":"文安县","zipcode":"065800"},{"name":"大厂回族自治县","zipcode":"065300"}]},{"name":"衡水市","area":[{"name":"桃城区","zipcode":"053000"},{"name":"冀州区","zipcode":"053200"},{"name":"深州市","zipcode":"053800"},{"name":"枣强县","zipcode":"053100"},{"name":"武邑县","zipcode":"053400"},{"name":"武强县","zipcode":"053300"},{"name":"饶阳县","zipcode":"053900"},{"name":"安平县","zipcode":"053600"},{"name":"故城县","zipcode":"053800"},{"name":"景县","zipcode":"053500"},{"name":"阜城县","zipcode":"053700"}]}]},{"name":"山西省","city":[{"name":"太原市","area":[{"name":"杏花岭区","zipcode":"030009"},{"name":"小店区","zipcode":"030032"},{"name":"迎泽区","zipcode":"030002"},{"name":"尖草坪区","zipcode":"030023"},{"name":"万柏林区","zipcode":"030024"},{"name":"晋源区","zipcode":"030025"},{"name":"古交市","zipcode":"030200"},{"name":"清徐县","zipcode":"030400"},{"name":"阳曲县","zipcode":"030100"},{"name":"娄烦县","zipcode":"030300"}]},{"name":"大同市","area":[{"name":"城区","zipcode":"037008"},{"name":"矿区","zipcode":"037003"},{"name":"南郊区","zipcode":"037001"},{"name":"新荣区","zipcode":"037002"},{"name":"阳高县","zipcode":"038100"},{"name":"天镇县","zipcode":"038200"},{"name":"广灵县","zipcode":"037500"},{"name":"灵丘县","zipcode":"034400"},{"name":"浑源县","zipcode":"037400"},{"name":"左云县","zipcode":"037100"},{"name":"大同县","zipcode":"037300"}]},{"name":"阳泉市","area":[{"name":"城区","zipcode":"037008"},{"name":"矿区","zipcode":"037003"},{"name":"郊区","zipcode":"045011"},{"name":"平定县","zipcode":"045200"},{"name":"盂县","zipcode":"045100"}]},{"name":"长治市","area":[{"name":"城区","zipcode":"037008"},{"name":"郊区","zipcode":"045011"},{"name":"潞城市","zipcode":"047500"},{"name":"长治县","zipcode":"047100"},{"name":"襄垣县","zipcode":"046200"},{"name":"屯留县","zipcode":"046100"},{"name":"平顺县","zipcode":"047400"},{"name":"黎城县","zipcode":"047600"},{"name":"壶关县","zipcode":"047300"},{"name":"长子县","zipcode":"046600"},{"name":"武乡县","zipcode":"046300"},{"name":"沁县","zipcode":"046400"},{"name":"沁源县","zipcode":"046500"}]},{"name":"晋城市","area":[{"name":"城区","zipcode":"037008"},{"name":"高平市","zipcode":"048400"},{"name":"沁水县","zipcode":"048200"},{"name":"阳城县","zipcode":"048100"},{"name":"陵川县","zipcode":"048300"},{"name":"泽州县","zipcode":"048012"}]},{"name":"朔州市","area":[{"name":"朔城区","zipcode":"036000"},{"name":"平鲁区","zipcode":"038600"},{"name":"山阴县","zipcode":"036900"},{"name":"应县","zipcode":"037600"},{"name":"右玉县","zipcode":"037200"},{"name":"怀仁县","zipcode":"038300"}]},{"name":"晋中市","area":[{"name":"榆次区","zipcode":"030600"},{"name":"介休市","zipcode":"032000"},{"name":"榆社县","zipcode":"031800"},{"name":"左权县","zipcode":"032600"},{"name":"和顺县","zipcode":"032700"},{"name":"昔阳县","zipcode":"045300"},{"name":"寿阳县","zipcode":"045400"},{"name":"太谷县","zipcode":"030800"},{"name":"祁县","zipcode":"030900"},{"name":"平遥县","zipcode":"031100"},{"name":"灵石县","zipcode":"031300"}]},{"name":"运城市","area":[{"name":"盐湖区","zipcode":"044000"},{"name":"永济市","zipcode":"044500"},{"name":"河津市","zipcode":"043300"},{"name":"临猗县","zipcode":"044100"},{"name":"万荣县","zipcode":"044200"},{"name":"闻喜县","zipcode":"043800"},{"name":"稷山县","zipcode":"043200"},{"name":"新绛县","zipcode":"043100"},{"name":"绛县","zipcode":"043600"},{"name":"垣曲县","zipcode":"043700"},{"name":"夏县","zipcode":"044400"},{"name":"平陆县","zipcode":"044300"},{"name":"芮城县","zipcode":"044600"}]},{"name":"忻州市","area":[{"name":"忻府区","zipcode":"034000"},{"name":"原平市","zipcode":"034100"},{"name":"定襄县","zipcode":"035400"},{"name":"五台县","zipcode":"035500"},{"name":"代县","zipcode":"034200"},{"name":"繁峙县","zipcode":"034300"},{"name":"宁武县","zipcode":"036700"},{"name":"静乐县","zipcode":"035100"},{"name":"神池县","zipcode":"036100"},{"name":"五寨县","zipcode":"036200"},{"name":"岢岚县","zipcode":"036300"},{"name":"河曲县","zipcode":"036500"},{"name":"保德县","zipcode":"036600"},{"name":"偏关县","zipcode":"036400"}]},{"name":"临汾市","area":[{"name":"尧都区","zipcode":"041000"},{"name":"侯马市","zipcode":"043000"},{"name":"霍州市","zipcode":"031400"},{"name":"曲沃县","zipcode":"043400"},{"name":"翼城县","zipcode":"043500"},{"name":"襄汾县","zipcode":"041500"},{"name":"洪洞县","zipcode":"041600"},{"name":"古县","zipcode":"042400"},{"name":"安泽县","zipcode":"042500"},{"name":"浮山县","zipcode":"042600"},{"name":"吉县","zipcode":"042200"},{"name":"乡宁县","zipcode":"042100"},{"name":"大宁县","zipcode":"042300"},{"name":"隰县","zipcode":"041300"},{"name":"永和县","zipcode":"041400"},{"name":"蒲县","zipcode":"041200"},{"name":"汾西县","zipcode":"031500"}]},{"name":"吕梁市","area":[{"name":"离石区","zipcode":"033000"},{"name":"孝义市","zipcode":"032300"},{"name":"汾阳市","zipcode":"032200"},{"name":"文水县","zipcode":"032100"},{"name":"交城县","zipcode":"030500"},{"name":"兴县","zipcode":"033600"},{"name":"临县","zipcode":"033200"},{"name":"柳林县","zipcode":"033300"},{"name":"石楼县","zipcode":"032500"},{"name":"岚县","zipcode":"033500"},{"name":"方山县","zipcode":"033100"},{"name":"中阳县","zipcode":"033400"},{"name":"交口县","zipcode":"032400"}]}]},{"name":"内蒙古自治区","city":[{"name":"呼和浩特市","area":[{"name":"新城区","zipcode":"010050"},{"name":"回民区","zipcode":"010030"},{"name":"玉泉区","zipcode":"010020"},{"name":"赛罕区","zipcode":"010020"},{"name":"托克托县","zipcode":"010200"},{"name":"和林格尔县","zipcode":"011500"},{"name":"清水河县","zipcode":"011600"},{"name":"武川县","zipcode":"011700"},{"name":"土默特左旗","zipcode":"010100"}]},{"name":"包头市","area":[{"name":"昆都仑区","zipcode":"014010"},{"name":"东河区","zipcode":"014040"},{"name":"青山区","zipcode":"014030"},{"name":"石拐区","zipcode":"014070"},{"name":"白云鄂博矿区","zipcode":"014080"},{"name":"九原区","zipcode":"014060"},{"name":"固阳县","zipcode":"014200"},{"name":"土默特右旗","zipcode":"014100"},{"name":"达尔罕茂明安联合旗","zipcode":"014500"}]},{"name":"乌海市","area":[{"name":"海勃湾区","zipcode":"016000"},{"name":"海南区","zipcode":"016030"},{"name":"乌达区","zipcode":"016040"}]},{"name":"赤峰市","area":[{"name":"红山区","zipcode":"024020"},{"name":"元宝山区","zipcode":"024076"},{"name":"松山区","zipcode":"024005"},{"name":"林西县","zipcode":"025250"},{"name":"宁城县","zipcode":"024200"},{"name":"阿鲁科尔沁旗","zipcode":"025550"},{"name":"巴林左旗","zipcode":"025450"},{"name":"巴林右旗","zipcode":"025150"},{"name":"克什克腾旗","zipcode":"025350"},{"name":"翁牛特旗","zipcode":"024500"},{"name":"喀喇沁旗","zipcode":"024400"},{"name":"敖汉旗","zipcode":"024300"}]},{"name":"通辽市","area":[{"name":"科尔沁区","zipcode":"028000"},{"name":"霍林郭勒市","zipcode":"029200"},{"name":"开鲁县","zipcode":"028400"},{"name":"库伦旗","zipcode":"028200"},{"name":"奈曼旗","zipcode":"028300"},{"name":"扎鲁特旗","zipcode":"029100"},{"name":"科尔沁左翼中旗","zipcode":"029300"},{"name":"科尔沁左翼后旗","zipcode":"028100"}]},{"name":"鄂尔多斯市","area":[{"name":"东胜区","zipcode":"017000"},{"name":"康巴什区","zipcode":"017010"},{"name":"达拉特旗","zipcode":"014300"},{"name":"准格尔旗","zipcode":"017100"},{"name":"鄂托克前旗","zipcode":"016200"},{"name":"鄂托克旗","zipcode":"016100"},{"name":"杭锦旗","zipcode":"017400"},{"name":"乌审旗","zipcode":"017300"},{"name":"伊金霍洛旗","zipcode":"017200"}]},{"name":"呼伦贝尔市","area":[{"name":"海拉尔区","zipcode":"021000"},{"name":"扎赉诺尔区","zipcode":"021410"},{"name":"满洲里市","zipcode":"021400"},{"name":"牙克石市","zipcode":"022150"},{"name":"扎兰屯市","zipcode":"162650"},{"name":"额尔古纳市","zipcode":"022250"},{"name":"根河市","zipcode":"022350"},{"name":"阿荣旗","zipcode":"162750"},{"name":"陈巴尔虎旗","zipcode":"021500"},{"name":"新巴尔虎左旗","zipcode":"021200"},{"name":"新巴尔虎右旗","zipcode":"021300"},{"name":"莫力达瓦达斡尔族自治旗","zipcode":"162850"},{"name":"鄂伦春自治旗","zipcode":"165450"},{"name":"鄂温克族自治旗","zipcode":"021100"}]},{"name":"巴彦淖尔市","area":[{"name":"临河区","zipcode":"015001"},{"name":"五原县","zipcode":"015100"},{"name":"磴口县","zipcode":"015200"},{"name":"乌拉特前旗","zipcode":"014400"},{"name":"乌拉特中旗","zipcode":"015300"},{"name":"乌拉特后旗","zipcode":"015500"},{"name":"杭锦后旗","zipcode":"015400"}]},{"name":"乌兰察布市","area":[{"name":"集宁区","zipcode":"012000"},{"name":"丰镇市","zipcode":"012100"},{"name":"卓资县","zipcode":"012300"},{"name":"化德县","zipcode":"013350"},{"name":"商都县","zipcode":"013450"},{"name":"兴和县","zipcode":"013650"},{"name":"凉城县","zipcode":"013750"},{"name":"察哈尔右翼前旗","zipcode":"012200"},{"name":"察哈尔右翼中旗","zipcode":"013550"},{"name":"察哈尔右翼后旗","zipcode":"012400"},{"name":"四子王旗","zipcode":"011800"}]},{"name":"兴安盟","area":[{"name":"乌兰浩特市","zipcode":"137401"},{"name":"阿尔山市","zipcode":"137800"},{"name":"突泉县","zipcode":"137500"},{"name":"科尔沁右翼前旗","zipcode":"137423"},{"name":"科尔沁右翼中旗","zipcode":"029400"},{"name":"扎赉特旗","zipcode":"137600"}]},{"name":"锡林郭勒盟","area":[{"name":"锡林浩特市","zipcode":"026021"},{"name":"二连浩特市","zipcode":"011100"},{"name":"多伦县","zipcode":"027300"},{"name":"阿巴嘎旗","zipcode":"011400"},{"name":"苏尼特左旗","zipcode":"011300"},{"name":"苏尼特右旗","zipcode":"011200"},{"name":"东乌珠穆沁旗","zipcode":"026300"},{"name":"西乌珠穆沁旗","zipcode":"026200"},{"name":"太仆寺旗","zipcode":"027000"},{"name":"镶黄旗","zipcode":"013250"},{"name":"正镶白旗","zipcode":"013800"},{"name":"正蓝旗","zipcode":"027200"}]},{"name":"阿拉善盟","area":[{"name":"阿拉善左旗","zipcode":"750306"},{"name":"阿拉善右旗","zipcode":"737300"},{"name":"额济纳旗","zipcode":"735400"}]}]},{"name":"辽宁省","city":[{"name":"沈阳市","area":[{"name":"沈河区","zipcode":"110011"},{"name":"和平区","zipcode":"300041"},{"name":"大东区","zipcode":"110041"},{"name":"皇姑区","zipcode":"110031"},{"name":"铁西区","zipcode":"110021"},{"name":"苏家屯区","zipcode":"110101"},{"name":"浑南区","zipcode":"110015"},{"name":"沈北新区","zipcode":"110121"},{"name":"于洪区","zipcode":"110141"},{"name":"辽中区","zipcode":"110200"},{"name":"新民市","zipcode":"110300"},{"name":"康平县","zipcode":"110500"},{"name":"法库县","zipcode":"110400"}]},{"name":"大连市","area":[{"name":"西岗区","zipcode":"116011"},{"name":"中山区","zipcode":"116001"},{"name":"沙河口区","zipcode":"116021"},{"name":"甘井子区","zipcode":"116033"},{"name":"旅顺口区","zipcode":"116050"},{"name":"金州区","zipcode":"116600"},{"name":"瓦房店市","zipcode":"116300"},{"name":"普兰店区","zipcode":"116299"},{"name":"庄河市","zipcode":"116400"},{"name":"长海县","zipcode":"116500"}]},{"name":"鞍山市","area":[{"name":"铁东区","zipcode":"114001"},{"name":"铁西区","zipcode":"110021"},{"name":"立山区","zipcode":"114031"},{"name":"千山区","zipcode":"114041"},{"name":"海城市","zipcode":"114200"},{"name":"台安县","zipcode":"114100"},{"name":"岫岩满族自治县","zipcode":"114300"}]},{"name":"抚顺市","area":[{"name":"顺城区","zipcode":"113006"},{"name":"新抚区","zipcode":"113008"},{"name":"东洲区","zipcode":"113003"},{"name":"望花区","zipcode":"113001"},{"name":"抚顺县","zipcode":"113006"},{"name":"新宾满族自治县","zipcode":"113200"},{"name":"清原满族自治县","zipcode":"113300"}]},{"name":"本溪市","area":[{"name":"平山区","zipcode":"117000"},{"name":"溪湖区","zipcode":"117002"},{"name":"明山区","zipcode":"117020"},{"name":"南芬区","zipcode":"117014"},{"name":"本溪满族自治县","zipcode":"117100"},{"name":"桓仁满族自治县","zipcode":"117200"}]},{"name":"丹东市","area":[{"name":"振兴区","zipcode":"118002"},{"name":"元宝区","zipcode":"118000"},{"name":"振安区","zipcode":"118001"},{"name":"东港市","zipcode":"118300"},{"name":"凤城市","zipcode":"118100"},{"name":"宽甸满族自治县","zipcode":"118200"}]},{"name":"锦州市","area":[{"name":"太和区","zipcode":"121012"},{"name":"古塔区","zipcode":"121004"},{"name":"凌河区","zipcode":"121000"},{"name":"凌海市","zipcode":"121200"},{"name":"北镇市","zipcode":"121300"},{"name":"黑山县","zipcode":"121400"},{"name":"义县","zipcode":"121100"}]},{"name":"营口市","area":[{"name":"站前区","zipcode":"115002"},{"name":"西市区","zipcode":"115004"},{"name":"鲅鱼圈区","zipcode":"115007"},{"name":"老边区","zipcode":"115005"},{"name":"盖州市","zipcode":"115200"},{"name":"大石桥市","zipcode":"115100"}]},{"name":"阜新市","area":[{"name":"细河区","zipcode":"123000"},{"name":"海州区","zipcode":"123000"},{"name":"新邱区","zipcode":"123005"},{"name":"太平区","zipcode":"123003"},{"name":"清河门区","zipcode":"123006"},{"name":"彰武县","zipcode":"123200"},{"name":"阜新蒙古族自治县","zipcode":"123100"}]},{"name":"辽阳市","area":[{"name":"白塔区","zipcode":"111000"},{"name":"文圣区","zipcode":"111000"},{"name":"宏伟区","zipcode":"111003"},{"name":"弓长岭区","zipcode":"111008"},{"name":"太子河区","zipcode":"111000"},{"name":"灯塔市","zipcode":"111300"},{"name":"辽阳县","zipcode":"111200"}]},{"name":"盘锦市","area":[{"name":"兴隆台区","zipcode":"124010"},{"name":"双台子区","zipcode":"124000"},{"name":"大洼区","zipcode":"124200"},{"name":"盘山县","zipcode":"124107"}]},{"name":"铁岭市","area":[{"name":"银州区","zipcode":"112000"},{"name":"清河区","zipcode":"112003"},{"name":"调兵山市","zipcode":"112700"},{"name":"开原市","zipcode":"112300"},{"name":"铁岭县","zipcode":"112000"},{"name":"西丰县","zipcode":"112400"},{"name":"昌图县","zipcode":"112500"}]},{"name":"朝阳市","area":[{"name":"双塔区","zipcode":"122000"},{"name":"龙城区","zipcode":"122000"},{"name":"北票市","zipcode":"122100"},{"name":"凌源市","zipcode":"122500"},{"name":"朝阳县","zipcode":"122000"},{"name":"建平县","zipcode":"122400"},{"name":"喀喇沁左翼蒙古族自治县","zipcode":"122300"}]},{"name":"葫芦岛市","area":[{"name":"龙港区","zipcode":"125003"},{"name":"连山区","zipcode":"125001"},{"name":"南票区","zipcode":"125027"},{"name":"兴城市","zipcode":"125100"},{"name":"绥中县","zipcode":"125200"},{"name":"建昌县","zipcode":"125300"}]}]},{"name":"吉林省","city":[{"name":"长春市","area":[{"name":"南关区","zipcode":"130022"},{"name":"宽城区","zipcode":"130051"},{"name":"朝阳区","zipcode":"100020"},{"name":"二道区","zipcode":"130031"},{"name":"绿园区","zipcode":"130062"},{"name":"双阳区","zipcode":"130600"},{"name":"九台区","zipcode":"130500"},{"name":"榆树市","zipcode":"130400"},{"name":"德惠市","zipcode":"130300"},{"name":"农安县","zipcode":"130200"}]},{"name":"吉林市","area":[{"name":"船营区","zipcode":"132011"},{"name":"昌邑区","zipcode":"132002"},{"name":"龙潭区","zipcode":"132021"},{"name":"丰满区","zipcode":"132013"},{"name":"蛟河市","zipcode":"132500"},{"name":"桦甸市","zipcode":"132400"},{"name":"舒兰市","zipcode":"132600"},{"name":"磐石市","zipcode":"132300"},{"name":"永吉县","zipcode":"132200"}]},{"name":"四平市","area":[{"name":"铁西区","zipcode":"110021"},{"name":"铁东区","zipcode":"114001"},{"name":"公主岭市","zipcode":"136100"},{"name":"双辽市","zipcode":"136400"},{"name":"梨树县","zipcode":"136500"},{"name":"伊通满族自治县","zipcode":"130700"}]},{"name":"辽源市","area":[{"name":"龙山区","zipcode":"136200"},{"name":"西安区","zipcode":"136201"},{"name":"东丰县","zipcode":"136300"},{"name":"东辽县","zipcode":"136600"}]},{"name":"通化市","area":[{"name":"东昌区","zipcode":"134001"},{"name":"二道江区","zipcode":"134003"},{"name":"梅河口市","zipcode":"135000"},{"name":"集安市","zipcode":"134200"},{"name":"通化县","zipcode":"134100"},{"name":"辉南县","zipcode":"135100"},{"name":"柳河县","zipcode":"135300"}]},{"name":"白山市","area":[{"name":"浑江区","zipcode":"134300"},{"name":"江源区","zipcode":"134700"},{"name":"临江市","zipcode":"134600"},{"name":"抚松县","zipcode":"134500"},{"name":"靖宇县","zipcode":"135200"},{"name":"长白朝鲜族自治县","zipcode":"134400"}]},{"name":"松原市","area":[{"name":"宁江区","zipcode":"138000"},{"name":"扶余市","zipcode":"131200"},{"name":"长岭县","zipcode":"131500"},{"name":"乾安县","zipcode":"131400"},{"name":"前郭尔罗斯蒙古族自治县","zipcode":"138000"}]},{"name":"白城市","area":[{"name":"洮北区","zipcode":"137000"},{"name":"洮南市","zipcode":"137100"},{"name":"大安市","zipcode":"131300"},{"name":"镇赉县","zipcode":"137300"},{"name":"通榆县","zipcode":"137200"}]},{"name":"延边朝鲜族自治州","area":[{"name":"延吉市","zipcode":"133000"},{"name":"图们市","zipcode":"133100"},{"name":"敦化市","zipcode":"133700"},{"name":"珲春市","zipcode":"133300"},{"name":"龙井市","zipcode":"133400"},{"name":"和龙市","zipcode":"133500"},{"name":"汪清县","zipcode":"133200"},{"name":"安图县","zipcode":"133600"}]}]},{"name":"黑龙江省","city":[{"name":"哈尔滨市","area":[{"name":"松北区","zipcode":"150028"},{"name":"道里区","zipcode":"150010"},{"name":"南岗区","zipcode":"150006"},{"name":"道外区","zipcode":"150020"},{"name":"平房区","zipcode":"150060"},{"name":"香坊区","zipcode":"150036"},{"name":"呼兰区","zipcode":"150500"},{"name":"阿城区","zipcode":"150300"},{"name":"双城区","zipcode":"150100"},{"name":"尚志市","zipcode":"150600"},{"name":"五常市","zipcode":"150200"},{"name":"依兰县","zipcode":"154800"},{"name":"方正县","zipcode":"150800"},{"name":"宾县","zipcode":"150400"},{"name":"巴彦县","zipcode":"151800"},{"name":"木兰县","zipcode":"151900"},{"name":"通河县","zipcode":"150900"},{"name":"延寿县","zipcode":"150700"}]},{"name":"齐齐哈尔市","area":[{"name":"建华区","zipcode":"161006"},{"name":"龙沙区","zipcode":"161000"},{"name":"铁锋区","zipcode":"161000"},{"name":"昂昂溪区","zipcode":"161031"},{"name":"富拉尔基区","zipcode":"161041"},{"name":"碾子山区","zipcode":"161046"},{"name":"梅里斯达斡尔族区","zipcode":"161021"},{"name":"讷河市","zipcode":"161300"},{"name":"龙江县","zipcode":"161100"},{"name":"依安县","zipcode":"161500"},{"name":"泰来县","zipcode":"162400"},{"name":"甘南县","zipcode":"162100"},{"name":"富裕县","zipcode":"161200"},{"name":"克山县","zipcode":"161600"},{"name":"克东县","zipcode":"164800"},{"name":"拜泉县","zipcode":"164700"}]},{"name":"鸡西市","area":[{"name":"鸡冠区","zipcode":"158100"},{"name":"恒山区","zipcode":"158130"},{"name":"滴道区","zipcode":"158150"},{"name":"梨树区","zipcode":"158160"},{"name":"城子河区","zipcode":"158170"},{"name":"麻山区","zipcode":"158180"},{"name":"虎林市","zipcode":"158400"},{"name":"密山市","zipcode":"158300"},{"name":"鸡东县","zipcode":"158200"}]},{"name":"鹤岗市","area":[{"name":"向阳区","zipcode":"154100"},{"name":"工农区","zipcode":"154101"},{"name":"南山区","zipcode":"154104"},{"name":"兴安区","zipcode":"154102"},{"name":"东山区","zipcode":"154106"},{"name":"兴山区","zipcode":"154105"},{"name":"萝北县","zipcode":"154200"},{"name":"绥滨县","zipcode":"156200"}]},{"name":"双鸭山市","area":[{"name":"尖山区","zipcode":"155100"},{"name":"岭东区","zipcode":"155120"},{"name":"四方台区","zipcode":"155130"},{"name":"宝山区","zipcode":"155131"},{"name":"集贤县","zipcode":"155900"},{"name":"友谊县","zipcode":"155800"},{"name":"宝清县","zipcode":"155600"},{"name":"饶河县","zipcode":"155700"}]},{"name":"大庆市","area":[{"name":"萨尔图区","zipcode":"163001"},{"name":"龙凤区","zipcode":"163711"},{"name":"让胡路区","zipcode":"163712"},{"name":"红岗区","zipcode":"163511"},{"name":"大同区","zipcode":"163515"},{"name":"肇州县","zipcode":"166400"},{"name":"肇源县","zipcode":"166500"},{"name":"林甸县","zipcode":"166300"},{"name":"杜尔伯特蒙古族自治县","zipcode":"166200"}]},{"name":"伊春市","area":[{"name":"伊春区","zipcode":"153000"},{"name":"南岔区","zipcode":"153100"},{"name":"友好区","zipcode":"153031"},{"name":"西林区","zipcode":"153025"},{"name":"翠峦区","zipcode":"153013"},{"name":"新青区","zipcode":"153036"},{"name":"美溪区","zipcode":"153021"},{"name":"金山屯区","zipcode":"153026"},{"name":"五营区","zipcode":"153033"},{"name":"乌马河区","zipcode":"153011"},{"name":"汤旺河区","zipcode":"153037"},{"name":"带岭区","zipcode":"153106"},{"name":"乌伊岭区","zipcode":"153038"},{"name":"红星区","zipcode":"153035"},{"name":"上甘岭区","zipcode":"153032"},{"name":"铁力市","zipcode":"152500"},{"name":"嘉荫县","zipcode":"153200"}]},{"name":"佳木斯市","area":[{"name":"前进区","zipcode":"154002"},{"name":"向阳区","zipcode":"154100"},{"name":"东风区","zipcode":"154005"},{"name":"郊区","zipcode":"045011"},{"name":"同江市","zipcode":"156400"},{"name":"富锦市","zipcode":"156100"},{"name":"抚远市","zipcode":"156500"},{"name":"桦南县","zipcode":"154400"},{"name":"桦川县","zipcode":"154300"},{"name":"汤原县","zipcode":"154700"}]},{"name":"七台河市","area":[{"name":"桃山区","zipcode":"154600"},{"name":"新兴区","zipcode":"154604"},{"name":"茄子河区","zipcode":"154622"},{"name":"勃利县","zipcode":"154500"}]},{"name":"牡丹江市","area":[{"name":"东安区","zipcode":"157000"},{"name":"阳明区","zipcode":"157013"},{"name":"爱民区","zipcode":"157009"},{"name":"西安区","zipcode":"136201"},{"name":"绥芬河市","zipcode":"157300"},{"name":"海林市","zipcode":"157100"},{"name":"宁安市","zipcode":"157400"},{"name":"穆棱市","zipcode":"157500"},{"name":"东宁市","zipcode":"157200"},{"name":"林口县","zipcode":"157600"}]},{"name":"黑河市","area":[{"name":"爱辉区","zipcode":"164300"},{"name":"北安市","zipcode":"164000"},{"name":"五大连池市","zipcode":"164100"},{"name":"嫩江县","zipcode":"161400"},{"name":"逊克县","zipcode":"164400"},{"name":"孙吴县","zipcode":"164200"}]},{"name":"绥化市","area":[{"name":"北林区","zipcode":"152000"},{"name":"安达市","zipcode":"151400"},{"name":"肇东市","zipcode":"151100"},{"name":"海伦市","zipcode":"152300"},{"name":"望奎县","zipcode":"152100"},{"name":"兰西县","zipcode":"151500"},{"name":"青冈县","zipcode":"151600"},{"name":"庆安县","zipcode":"152400"},{"name":"明水县","zipcode":"151700"},{"name":"绥棱县","zipcode":"152200"}]},{"name":"大兴安岭地区","area":[{"name":"呼玛县","zipcode":"165100"},{"name":"塔河县","zipcode":"165200"},{"name":"漠河县","zipcode":"165300"}]}]},{"name":"江苏省","city":[{"name":"南京市","area":[{"name":"玄武区","zipcode":"210018"},{"name":"秦淮区","zipcode":"210001"},{"name":"建邺区","zipcode":"210004"},{"name":"鼓楼区","zipcode":"210009"},{"name":"浦口区","zipcode":"211800"},{"name":"栖霞区","zipcode":"210046"},{"name":"雨花台区","zipcode":"210012"},{"name":"江宁区","zipcode":"211100"},{"name":"六合区","zipcode":"211500"},{"name":"溧水区","zipcode":"211200"},{"name":"高淳区","zipcode":"211300"}]},{"name":"无锡市","area":[{"name":"锡山区","zipcode":"214101"},{"name":"惠山区","zipcode":"214174"},{"name":"滨湖区","zipcode":"214123"},{"name":"梁溪区","zipcode":"0"},{"name":"新吴区","zipcode":"214135"},{"name":"江阴市","zipcode":"214431"},{"name":"宜兴市","zipcode":"214200"}]},{"name":"徐州市","area":[{"name":"云龙区","zipcode":"221007"},{"name":"鼓楼区","zipcode":"210009"},{"name":"贾汪区","zipcode":"221003"},{"name":"泉山区","zipcode":"221006"},{"name":"铜山区","zipcode":"221106"},{"name":"新沂市","zipcode":"221400"},{"name":"邳州市","zipcode":"221300"},{"name":"丰县","zipcode":"221700"},{"name":"沛县","zipcode":"221600"},{"name":"睢宁县","zipcode":"221200"}]},{"name":"常州市","area":[{"name":"新北区","zipcode":"213022"},{"name":"天宁区","zipcode":"213000"},{"name":"钟楼区","zipcode":"213023"},{"name":"武进区","zipcode":"213159"},{"name":"金坛区","zipcode":"213200"},{"name":"溧阳市","zipcode":"213300"}]},{"name":"苏州市","area":[{"name":"姑苏区","zipcode":"215031"},{"name":"虎丘区","zipcode":"215004"},{"name":"吴中区","zipcode":"215128"},{"name":"相城区","zipcode":"215131"},{"name":"吴江区","zipcode":"215200"},{"name":"常熟市","zipcode":"215500"},{"name":"张家港市","zipcode":"215600"},{"name":"昆山市","zipcode":"215300"},{"name":"太仓市","zipcode":"215400"}]},{"name":"南通市","area":[{"name":"崇川区","zipcode":"226001"},{"name":"港闸区","zipcode":"226001"},{"name":"通州区","zipcode":"101149"},{"name":"启东市","zipcode":"226200"},{"name":"如皋市","zipcode":"226500"},{"name":"海门市","zipcode":"226100"},{"name":"海安县","zipcode":"226600"},{"name":"如东县","zipcode":"226400"}]},{"name":"连云港市","area":[{"name":"海州区","zipcode":"123000"},{"name":"连云区","zipcode":"222042"},{"name":"赣榆区","zipcode":"222100"},{"name":"东海县","zipcode":"222300"},{"name":"灌云县","zipcode":"222200"},{"name":"灌南县","zipcode":"222500"}]},{"name":"淮安市","area":[{"name":"淮安区","zipcode":"223200"},{"name":"淮阴区","zipcode":"223300"},{"name":"清江浦区","zipcode":"223002"},{"name":"洪泽区","zipcode":"223100"},{"name":"涟水县","zipcode":"223400"},{"name":"盱眙县","zipcode":"211700"},{"name":"金湖县","zipcode":"211600"}]},{"name":"盐城市","area":[{"name":"亭湖区","zipcode":"224005"},{"name":"盐都区","zipcode":"224055"},{"name":"大丰区","zipcode":"224100"},{"name":"东台市","zipcode":"224200"},{"name":"响水县","zipcode":"224600"},{"name":"滨海县","zipcode":"224500"},{"name":"阜宁县","zipcode":"224400"},{"name":"射阳县","zipcode":"224300"},{"name":"建湖县","zipcode":"224700"}]},{"name":"扬州市","area":[{"name":"邗江区","zipcode":"225002"},{"name":"广陵区","zipcode":"225002"},{"name":"江都区","zipcode":"225200"},{"name":"仪征市","zipcode":"211400"},{"name":"高邮市","zipcode":"225600"},{"name":"宝应县","zipcode":"225800"}]},{"name":"镇江市","area":[{"name":"京口区","zipcode":"212003"},{"name":"润州区","zipcode":"212005"},{"name":"丹徒区","zipcode":"212028"},{"name":"丹阳市","zipcode":"212300"},{"name":"扬中市","zipcode":"212200"},{"name":"句容市","zipcode":"212400"}]},{"name":"泰州市","area":[{"name":"海陵区","zipcode":"225300"},{"name":"高港区","zipcode":"225321"},{"name":"姜堰区","zipcode":"225500"},{"name":"兴化市","zipcode":"225700"},{"name":"靖江市","zipcode":"214500"},{"name":"泰兴市","zipcode":"225400"}]},{"name":"宿迁市","area":[{"name":"宿城区","zipcode":"223800"},{"name":"宿豫区","zipcode":"223800"},{"name":"沭阳县","zipcode":"223600"},{"name":"泗阳县","zipcode":"223700"},{"name":"泗洪县","zipcode":"223900"}]}]},{"name":"浙江省","city":[{"name":"杭州市","area":[{"name":"拱墅区","zipcode":"310011"},{"name":"上城区","zipcode":"310002"},{"name":"下城区","zipcode":"310006"},{"name":"江干区","zipcode":"310016"},{"name":"西湖区","zipcode":"310013"},{"name":"滨江区","zipcode":"310051"},{"name":"萧山区","zipcode":"311200"},{"name":"余杭区","zipcode":"311100"},{"name":"富阳区","zipcode":"311400"},{"name":"建德市","zipcode":"311600"},{"name":"临安市","zipcode":"311300"},{"name":"桐庐县","zipcode":"311500"},{"name":"淳安县","zipcode":"311700"}]},{"name":"宁波市","area":[{"name":"海曙区","zipcode":"315000"},{"name":"江北区","zipcode":"315020"},{"name":"北仑区","zipcode":"315800"},{"name":"镇海区","zipcode":"315200"},{"name":"鄞州区","zipcode":"315100"},{"name":"奉化区","zipcode":"315500"},{"name":"余姚市","zipcode":"315400"},{"name":"慈溪市","zipcode":"315300"},{"name":"象山县","zipcode":"315700"},{"name":"宁海县","zipcode":"315600"}]},{"name":"温州市","area":[{"name":"鹿城区","zipcode":"325000"},{"name":"龙湾区","zipcode":"325013"},{"name":"瓯海区","zipcode":"325005"},{"name":"洞头区","zipcode":"325700"},{"name":"瑞安市","zipcode":"325200"},{"name":"乐清市","zipcode":"325600"},{"name":"永嘉县","zipcode":"325100"},{"name":"平阳县","zipcode":"325400"},{"name":"苍南县","zipcode":"325800"},{"name":"文成县","zipcode":"325300"},{"name":"泰顺县","zipcode":"325500"}]},{"name":"嘉兴市","area":[{"name":"南湖区","zipcode":"314051"},{"name":"秀洲区","zipcode":"314031"},{"name":"海宁市","zipcode":"314400"},{"name":"平湖市","zipcode":"314200"},{"name":"桐乡市","zipcode":"314500"},{"name":"嘉善县","zipcode":"314100"},{"name":"海盐县","zipcode":"314300"}]},{"name":"湖州市","area":[{"name":"吴兴区","zipcode":"313000"},{"name":"南浔区","zipcode":"313009"},{"name":"德清县","zipcode":"313200"},{"name":"长兴县","zipcode":"313100"},{"name":"安吉县","zipcode":"313300"}]},{"name":"绍兴市","area":[{"name":"越城区","zipcode":"312000"},{"name":"柯桥区","zipcode":"312030"},{"name":"上虞区","zipcode":"312300"},{"name":"诸暨市","zipcode":"311800"},{"name":"嵊州市","zipcode":"312400"},{"name":"新昌县","zipcode":"312500"}]},{"name":"金华市","area":[{"name":"婺城区","zipcode":"321000"},{"name":"金东区","zipcode":"321000"},{"name":"兰溪市","zipcode":"321100"},{"name":"义乌市","zipcode":"322000"},{"name":"东阳市","zipcode":"322100"},{"name":"永康市","zipcode":"321300"},{"name":"武义县","zipcode":"321200"},{"name":"浦江县","zipcode":"322200"},{"name":"磐安县","zipcode":"322300"}]},{"name":"衢州市","area":[{"name":"柯城区","zipcode":"324100"},{"name":"衢江区","zipcode":"324022"},{"name":"江山市","zipcode":"324100"},{"name":"常山县","zipcode":"324200"},{"name":"开化县","zipcode":"324300"},{"name":"龙游县","zipcode":"324400"}]},{"name":"舟山市","area":[{"name":"定海区","zipcode":"316000"},{"name":"普陀区","zipcode":"200333"},{"name":"岱山县","zipcode":"316200"},{"name":"嵊泗县","zipcode":"202450"}]},{"name":"台州市","area":[{"name":"椒江区","zipcode":"318000"},{"name":"黄岩区","zipcode":"318020"},{"name":"路桥区","zipcode":"318050"},{"name":"温岭市","zipcode":"317500"},{"name":"临海市","zipcode":"317000"},{"name":"玉环市","zipcode":"317600"},{"name":"三门县","zipcode":"317100"},{"name":"天台县","zipcode":"317200"},{"name":"仙居县","zipcode":"317300"}]},{"name":"丽水市","area":[{"name":"莲都区","zipcode":"323000"},{"name":"龙泉市","zipcode":"323700"},{"name":"青田县","zipcode":"323900"},{"name":"缙云县","zipcode":"321400"},{"name":"遂昌县","zipcode":"323300"},{"name":"松阳县","zipcode":"323400"},{"name":"云和县","zipcode":"323600"},{"name":"庆元县","zipcode":"323800"},{"name":"景宁畲族自治县","zipcode":"323500"}]}]},{"name":"安徽省","city":[{"name":"合肥市","area":[{"name":"蜀山区","zipcode":"230031"},{"name":"瑶海区","zipcode":"230011"},{"name":"庐阳区","zipcode":"230001"},{"name":"包河区","zipcode":"230041"},{"name":"巢湖市","zipcode":"238000"},{"name":"长丰县","zipcode":"231100"},{"name":"肥东县","zipcode":"231600"},{"name":"肥西县","zipcode":"231200"},{"name":"庐江县","zipcode":"231500"}]},{"name":"芜湖市","area":[{"name":"鸠江区","zipcode":"241000"},{"name":"镜湖区","zipcode":"241000"},{"name":"弋江区","zipcode":"241000"},{"name":"三山区","zipcode":"241000"},{"name":"芜湖县","zipcode":"241100"},{"name":"繁昌县","zipcode":"241200"},{"name":"南陵县","zipcode":"242400"},{"name":"无为县","zipcode":"238300"}]},{"name":"蚌埠市","area":[{"name":"蚌山区","zipcode":"233000"},{"name":"龙子湖区","zipcode":"233000"},{"name":"禹会区","zipcode":"233010"},{"name":"淮上区","zipcode":"233002"},{"name":"怀远县","zipcode":"233400"},{"name":"五河县","zipcode":"233300"},{"name":"固镇县","zipcode":"233700"}]},{"name":"淮南市","area":[{"name":"田家庵区","zipcode":"232000"},{"name":"大通区","zipcode":"232033"},{"name":"谢家集区","zipcode":"232052"},{"name":"八公山区","zipcode":"232072"},{"name":"潘集区","zipcode":"232082"},{"name":"凤台县","zipcode":"232100"},{"name":"寿县","zipcode":"232200"}]},{"name":"马鞍山市","area":[{"name":"雨山区","zipcode":"243071"},{"name":"花山区","zipcode":"243000"},{"name":"博望区","zipcode":"243131"},{"name":"当涂县","zipcode":"243100"},{"name":"含山县","zipcode":"238100"},{"name":"和县","zipcode":"238200"}]},{"name":"淮北市","area":[{"name":"相山区","zipcode":"235000"},{"name":"杜集区","zipcode":"235000"},{"name":"烈山区","zipcode":"235000"},{"name":"濉溪县","zipcode":"235100"}]},{"name":"铜陵市","area":[{"name":"铜官区","zipcode":"244000"},{"name":"义安区","zipcode":"244100"},{"name":"郊区","zipcode":"045011"},{"name":"枞阳县","zipcode":"246700"}]},{"name":"安庆市","area":[{"name":"大观区","zipcode":"246002"},{"name":"迎江区","zipcode":"246001"},{"name":"宜秀区","zipcode":"246003"},{"name":"桐城市","zipcode":"231400"},{"name":"怀宁县","zipcode":"246100"},{"name":"潜山县","zipcode":"246300"},{"name":"太湖县","zipcode":"246400"},{"name":"宿松县","zipcode":"246500"},{"name":"望江县","zipcode":"246200"},{"name":"岳西县","zipcode":"246600"}]},{"name":"黄山市","area":[{"name":"屯溪区","zipcode":"245000"},{"name":"黄山区","zipcode":"242700"},{"name":"徽州区","zipcode":"245061"},{"name":"歙县","zipcode":"245200"},{"name":"休宁县","zipcode":"245400"},{"name":"黟县","zipcode":"245500"},{"name":"祁门县","zipcode":"245600"}]},{"name":"滁州市","area":[{"name":"琅琊区","zipcode":"239000"},{"name":"南谯区","zipcode":"239000"},{"name":"天长市","zipcode":"239300"},{"name":"明光市","zipcode":"239400"},{"name":"来安县","zipcode":"239200"},{"name":"全椒县","zipcode":"239500"},{"name":"定远县","zipcode":"233200"},{"name":"凤阳县","zipcode":"233100"}]},{"name":"阜阳市","area":[{"name":"颍州区","zipcode":"236001"},{"name":"颍东区","zipcode":"236058"},{"name":"颍泉区","zipcode":"236045"},{"name":"界首市","zipcode":"236500"},{"name":"临泉县","zipcode":"236400"},{"name":"太和县","zipcode":"236600"},{"name":"阜南县","zipcode":"236300"},{"name":"颍上县","zipcode":"236200"}]},{"name":"宿州市","area":[{"name":"埇桥区","zipcode":"234000"},{"name":"砀山县","zipcode":"235300"},{"name":"萧县","zipcode":"235200"},{"name":"灵璧县","zipcode":"234200"},{"name":"泗县","zipcode":"234300"}]},{"name":"六安市","area":[{"name":"金安区","zipcode":"237005"},{"name":"裕安区","zipcode":"237010"},{"name":"叶集区","zipcode":"237431"},{"name":"霍邱县","zipcode":"237400"},{"name":"舒城县","zipcode":"231300"},{"name":"金寨县","zipcode":"237300"},{"name":"霍山县","zipcode":"237200"}]},{"name":"亳州市","area":[{"name":"谯城区","zipcode":"236800"},{"name":"涡阳县","zipcode":"233600"},{"name":"蒙城县","zipcode":"233500"},{"name":"利辛县","zipcode":"236700"}]},{"name":"池州市","area":[{"name":"贵池区","zipcode":"247100"},{"name":"东至县","zipcode":"247200"},{"name":"石台县","zipcode":"245100"},{"name":"青阳县","zipcode":"242800"}]},{"name":"宣城市","area":[{"name":"宣州区","zipcode":"242000"},{"name":"宁国市","zipcode":"242300"},{"name":"郎溪县","zipcode":"242100"},{"name":"广德县","zipcode":"242200"},{"name":"泾县","zipcode":"242500"},{"name":"绩溪县","zipcode":"245300"},{"name":"旌德县","zipcode":"242600"}]}]},{"name":"福建省","city":[{"name":"福州市","area":[{"name":"鼓楼区","zipcode":"210009"},{"name":"台江区","zipcode":"350004"},{"name":"仓山区","zipcode":"350007"},{"name":"马尾区","zipcode":"350015"},{"name":"晋安区","zipcode":"350011"},{"name":"福清市","zipcode":"350300"},{"name":"长乐市","zipcode":"350200"},{"name":"闽侯县","zipcode":"350100"},{"name":"连江县","zipcode":"350500"},{"name":"罗源县","zipcode":"350600"},{"name":"闽清县","zipcode":"350800"},{"name":"永泰县","zipcode":"350700"},{"name":"平潭县","zipcode":"350400"}]},{"name":"厦门市","area":[{"name":"思明区","zipcode":"361001"},{"name":"海沧区","zipcode":"361026"},{"name":"湖里区","zipcode":"361006"},{"name":"集美区","zipcode":"361021"},{"name":"同安区","zipcode":"361100"},{"name":"翔安区","zipcode":"361101"}]},{"name":"莆田市","area":[{"name":"城厢区","zipcode":"351100"},{"name":"涵江区","zipcode":"351111"},{"name":"荔城区","zipcode":"351100"},{"name":"秀屿区","zipcode":"351152"},{"name":"仙游县","zipcode":"351200"}]},{"name":"三明市","area":[{"name":"梅列区","zipcode":"365000"},{"name":"三元区","zipcode":"365001"},{"name":"永安市","zipcode":"366000"},{"name":"明溪县","zipcode":"365200"},{"name":"清流县","zipcode":"365300"},{"name":"宁化县","zipcode":"365400"},{"name":"大田县","zipcode":"366100"},{"name":"尤溪县","zipcode":"365100"},{"name":"沙县","zipcode":"365500"},{"name":"将乐县","zipcode":"353300"},{"name":"泰宁县","zipcode":"354400"},{"name":"建宁县","zipcode":"354500"}]},{"name":"泉州市","area":[{"name":"丰泽区","zipcode":"362000"},{"name":"鲤城区","zipcode":"362000"},{"name":"洛江区","zipcode":"362011"},{"name":"泉港区","zipcode":"362114"},{"name":"石狮市","zipcode":"362700"},{"name":"晋江市","zipcode":"362200"},{"name":"南安市","zipcode":"362300"},{"name":"惠安县","zipcode":"362100"},{"name":"安溪县","zipcode":"362400"},{"name":"永春县","zipcode":"362600"},{"name":"德化县","zipcode":"362500"},{"name":"金门县☆","zipcode":"0"}]},{"name":"漳州市","area":[{"name":"龙文区","zipcode":"363005"},{"name":"芗城区","zipcode":"363000"},{"name":"龙海市","zipcode":"363100"},{"name":"云霄县","zipcode":"363300"},{"name":"漳浦县","zipcode":"363200"},{"name":"诏安县","zipcode":"363500"},{"name":"长泰县","zipcode":"363900"},{"name":"东山县","zipcode":"363400"},{"name":"南靖县","zipcode":"363600"},{"name":"平和县","zipcode":"363700"},{"name":"华安县","zipcode":"363800"}]},{"name":"南平市","area":[{"name":"建阳区","zipcode":"354200"},{"name":"延平区","zipcode":"353000"},{"name":"邵武市","zipcode":"354000"},{"name":"武夷山市","zipcode":"354300"},{"name":"建瓯市","zipcode":"353100"},{"name":"顺昌县","zipcode":"353200"},{"name":"浦城县","zipcode":"353400"},{"name":"光泽县","zipcode":"354100"},{"name":"松溪县","zipcode":"353500"},{"name":"政和县","zipcode":"353600"}]},{"name":"龙岩市","area":[{"name":"新罗区","zipcode":"364000"},{"name":"永定区","zipcode":"364100"},{"name":"漳平市","zipcode":"364400"},{"name":"长汀县","zipcode":"366300"},{"name":"上杭县","zipcode":"364200"},{"name":"武平县","zipcode":"364300"},{"name":"连城县","zipcode":"366200"}]},{"name":"宁德市","area":[{"name":"蕉城区","zipcode":"352100"},{"name":"福安市","zipcode":"355000"},{"name":"福鼎市","zipcode":"355200"},{"name":"霞浦县","zipcode":"355100"},{"name":"古田县","zipcode":"352200"},{"name":"屏南县","zipcode":"352300"},{"name":"寿宁县","zipcode":"355500"},{"name":"周宁县","zipcode":"355400"},{"name":"柘荣县","zipcode":"355300"}]}]},{"name":"江西省","city":[{"name":"南昌市","area":[{"name":"东湖区","zipcode":"330006"},{"name":"西湖区","zipcode":"310013"},{"name":"青云谱区","zipcode":"330001"},{"name":"湾里区","zipcode":"330004"},{"name":"青山湖区","zipcode":"330029"},{"name":"新建区","zipcode":"330100"},{"name":"南昌县","zipcode":"330200"},{"name":"安义县","zipcode":"330500"},{"name":"进贤县","zipcode":"331700"}]},{"name":"景德镇市","area":[{"name":"昌江区","zipcode":"333000"},{"name":"珠山区","zipcode":"333000"},{"name":"乐平市","zipcode":"333300"},{"name":"浮梁县","zipcode":"333400"}]},{"name":"萍乡市","area":[{"name":"安源区","zipcode":"337000"},{"name":"湘东区","zipcode":"337016"},{"name":"莲花县","zipcode":"337100"},{"name":"上栗县","zipcode":"337009"},{"name":"芦溪县","zipcode":"337053"}]},{"name":"九江市","area":[{"name":"浔阳区","zipcode":"332000"},{"name":"濂溪区","zipcode":"332005"},{"name":"瑞昌市","zipcode":"332200"},{"name":"共青城市","zipcode":"332020"},{"name":"庐山市","zipcode":"332800"},{"name":"九江县","zipcode":"332100"},{"name":"武宁县","zipcode":"332300"},{"name":"修水县","zipcode":"332400"},{"name":"永修县","zipcode":"330300"},{"name":"德安县","zipcode":"330400"},{"name":"都昌县","zipcode":"332600"},{"name":"湖口县","zipcode":"332500"},{"name":"彭泽县","zipcode":"332700"}]},{"name":"新余市","area":[{"name":"渝水区","zipcode":"338000"},{"name":"分宜县","zipcode":"336600"}]},{"name":"鹰潭市","area":[{"name":"月湖区","zipcode":"335000"},{"name":"贵溪市","zipcode":"335400"},{"name":"余江县","zipcode":"335200"}]},{"name":"赣州市","area":[{"name":"章贡区","zipcode":"341000"},{"name":"南康区","zipcode":"341400"},{"name":"赣县区","zipcode":"341100"},{"name":"瑞金市","zipcode":"342500"},{"name":"信丰县","zipcode":"341600"},{"name":"大余县","zipcode":"341500"},{"name":"上犹县","zipcode":"341200"},{"name":"崇义县","zipcode":"341300"},{"name":"安远县","zipcode":"342100"},{"name":"龙南县","zipcode":"341700"},{"name":"定南县","zipcode":"341900"},{"name":"全南县","zipcode":"341800"},{"name":"宁都县","zipcode":"342800"},{"name":"于都县","zipcode":"342300"},{"name":"兴国县","zipcode":"342400"},{"name":"会昌县","zipcode":"342600"},{"name":"寻乌县","zipcode":"342200"},{"name":"石城县","zipcode":"342700"}]},{"name":"吉安市","area":[{"name":"吉州区","zipcode":"343000"},{"name":"青原区","zipcode":"343009"},{"name":"井冈山市","zipcode":"343600"},{"name":"吉安县","zipcode":"343100"},{"name":"吉水县","zipcode":"331600"},{"name":"峡江县","zipcode":"331409"},{"name":"新干县","zipcode":"331300"},{"name":"永丰县","zipcode":"331500"},{"name":"泰和县","zipcode":"343700"},{"name":"遂川县","zipcode":"343900"},{"name":"万安县","zipcode":"343800"},{"name":"安福县","zipcode":"343200"},{"name":"永新县","zipcode":"343400"}]},{"name":"宜春市","area":[{"name":"袁州区","zipcode":"336000"},{"name":"丰城市","zipcode":"331100"},{"name":"樟树市","zipcode":"331200"},{"name":"高安市","zipcode":"330800"},{"name":"奉新县","zipcode":"330700"},{"name":"万载县","zipcode":"336100"},{"name":"上高县","zipcode":"336400"},{"name":"宜丰县","zipcode":"336300"},{"name":"靖安县","zipcode":"330600"},{"name":"铜鼓县","zipcode":"336200"}]},{"name":"抚州市","area":[{"name":"临川区","zipcode":"344000"},{"name":"东乡区","zipcode":"331800"},{"name":"南城县","zipcode":"344700"},{"name":"黎川县","zipcode":"344600"},{"name":"南丰县","zipcode":"344500"},{"name":"崇仁县","zipcode":"344200"},{"name":"乐安县","zipcode":"344300"},{"name":"宜黄县","zipcode":"344400"},{"name":"金溪县","zipcode":"344800"},{"name":"资溪县","zipcode":"335300"},{"name":"广昌县","zipcode":"344900"}]},{"name":"上饶市","area":[{"name":"信州区","zipcode":"334000"},{"name":"广丰区","zipcode":"334600"},{"name":"德兴市","zipcode":"334200"},{"name":"上饶县","zipcode":"334100"},{"name":"玉山县","zipcode":"334700"},{"name":"铅山县","zipcode":"334500"},{"name":"横峰县","zipcode":"334300"},{"name":"弋阳县","zipcode":"334400"},{"name":"余干县","zipcode":"335100"},{"name":"鄱阳县","zipcode":"333100"},{"name":"万年县","zipcode":"335500"},{"name":"婺源县","zipcode":"333200"}]}]},{"name":"山东省","city":[{"name":"济南市","area":[{"name":"市中区","zipcode":"250001"},{"name":"历下区","zipcode":"250014"},{"name":"槐荫区","zipcode":"250117"},{"name":"天桥区","zipcode":"250031"},{"name":"历城区","zipcode":"250100"},{"name":"长清区","zipcode":"250300"},{"name":"章丘区","zipcode":"250200"},{"name":"平阴县","zipcode":"250400"},{"name":"济阳县","zipcode":"251400"},{"name":"商河县","zipcode":"251600"}]},{"name":"青岛市","area":[{"name":"市南区","zipcode":"266001"},{"name":"市北区","zipcode":"266011"},{"name":"黄岛区","zipcode":"266500"},{"name":"崂山区","zipcode":"266100"},{"name":"李沧区","zipcode":"266021"},{"name":"城阳区","zipcode":"266041"},{"name":"胶州市","zipcode":"266300"},{"name":"即墨市","zipcode":"266200"},{"name":"平度市","zipcode":"266700"},{"name":"莱西市","zipcode":"266600"}]},{"name":"淄博市","area":[{"name":"张店区","zipcode":"255022"},{"name":"淄川区","zipcode":"255100"},{"name":"博山区","zipcode":"255200"},{"name":"临淄区","zipcode":"255400"},{"name":"周村区","zipcode":"255300"},{"name":"桓台县","zipcode":"256400"},{"name":"高青县","zipcode":"256300"},{"name":"沂源县","zipcode":"256100"}]},{"name":"枣庄市","area":[{"name":"薛城区","zipcode":"277000"},{"name":"市中区","zipcode":"250001"},{"name":"峄城区","zipcode":"277300"},{"name":"台儿庄区","zipcode":"277400"},{"name":"山亭区","zipcode":"277200"},{"name":"滕州市","zipcode":"277500"}]},{"name":"东营市","area":[{"name":"东营区","zipcode":"257029"},{"name":"河口区","zipcode":"257200"},{"name":"垦利区","zipcode":"257500"},{"name":"利津县","zipcode":"257400"},{"name":"广饶县","zipcode":"257300"}]},{"name":"烟台市","area":[{"name":"莱山区","zipcode":"264600"},{"name":"芝罘区","zipcode":"264001"},{"name":"福山区","zipcode":"265500"},{"name":"牟平区","zipcode":"264100"},{"name":"龙口市","zipcode":"265700"},{"name":"莱阳市","zipcode":"265200"},{"name":"莱州市","zipcode":"261400"},{"name":"蓬莱市","zipcode":"265600"},{"name":"招远市","zipcode":"265400"},{"name":"栖霞市","zipcode":"265300"},{"name":"海阳市","zipcode":"265100"},{"name":"长岛县","zipcode":"265800"}]},{"name":"潍坊市","area":[{"name":"奎文区","zipcode":"261031"},{"name":"潍城区","zipcode":"261021"},{"name":"寒亭区","zipcode":"261100"},{"name":"坊子区","zipcode":"261200"},{"name":"青州市","zipcode":"262500"},{"name":"诸城市","zipcode":"262200"},{"name":"寿光市","zipcode":"262700"},{"name":"安丘市","zipcode":"262100"},{"name":"高密市","zipcode":"261500"},{"name":"昌邑市","zipcode":"261300"},{"name":"临朐县","zipcode":"262600"},{"name":"昌乐县","zipcode":"262400"}]},{"name":"济宁市","area":[{"name":"任城区","zipcode":"272113"},{"name":"兖州区","zipcode":"272000"},{"name":"曲阜市","zipcode":"273100"},{"name":"邹城市","zipcode":"273500"},{"name":"微山县","zipcode":"277600"},{"name":"鱼台县","zipcode":"272300"},{"name":"金乡县","zipcode":"272200"},{"name":"嘉祥县","zipcode":"272400"},{"name":"汶上县","zipcode":"272501"},{"name":"泗水县","zipcode":"273200"},{"name":"梁山县","zipcode":"272600"}]},{"name":"泰安市","area":[{"name":"泰山区","zipcode":"271000"},{"name":"岱岳区","zipcode":"271000"},{"name":"新泰市","zipcode":"271200"},{"name":"肥城市","zipcode":"271600"},{"name":"宁阳县","zipcode":"271400"},{"name":"东平县","zipcode":"271500"}]},{"name":"威海市","area":[{"name":"环翠区","zipcode":"264200"},{"name":"文登区","zipcode":"266440"},{"name":"荣成市","zipcode":"264300"},{"name":"乳山市","zipcode":"264500"}]},{"name":"日照市","area":[{"name":"东港区","zipcode":"276800"},{"name":"岚山区","zipcode":"276808"},{"name":"五莲县","zipcode":"262300"},{"name":"莒县","zipcode":"276500"}]},{"name":"莱芜市","area":[{"name":"莱城区","zipcode":"271199"},{"name":"钢城区","zipcode":"271100"}]},{"name":"临沂市","area":[{"name":"兰山区","zipcode":"276002"},{"name":"罗庄区","zipcode":"276022"},{"name":"河东区","zipcode":"300171"},{"name":"沂南县","zipcode":"276300"},{"name":"郯城县","zipcode":"276100"},{"name":"沂水县","zipcode":"276400"},{"name":"兰陵县","zipcode":"277700"},{"name":"费县","zipcode":"273400"},{"name":"平邑县","zipcode":"273300"},{"name":"莒南县","zipcode":"276600"},{"name":"蒙阴县","zipcode":"276200"},{"name":"临沭县","zipcode":"276700"}]},{"name":"德州市","area":[{"name":"德城区","zipcode":"253012"},{"name":"陵城区","zipcode":"253500"},{"name":"乐陵市","zipcode":"253600"},{"name":"禹城市","zipcode":"251200"},{"name":"宁津县","zipcode":"253400"},{"name":"庆云县","zipcode":"253700"},{"name":"临邑县","zipcode":"251500"},{"name":"齐河县","zipcode":"251100"},{"name":"平原县","zipcode":"253100"},{"name":"夏津县","zipcode":"253200"},{"name":"武城县","zipcode":"253300"}]},{"name":"聊城市","area":[{"name":"东昌府区","zipcode":"252000"},{"name":"临清市","zipcode":"252600"},{"name":"阳谷县","zipcode":"252300"},{"name":"莘县","zipcode":"252400"},{"name":"茌平县","zipcode":"252100"},{"name":"东阿县","zipcode":"252200"},{"name":"冠县","zipcode":"252500"},{"name":"高唐县","zipcode":"252800"}]},{"name":"滨州市","area":[{"name":"滨城区","zipcode":"256613"},{"name":"沾化区","zipcode":"256800"},{"name":"惠民县","zipcode":"251700"},{"name":"阳信县","zipcode":"251800"},{"name":"无棣县","zipcode":"251900"},{"name":"博兴县","zipcode":"256500"},{"name":"邹平县","zipcode":"256200"}]},{"name":"菏泽市","area":[{"name":"牡丹区","zipcode":"274009"},{"name":"定陶区","zipcode":"274100"},{"name":"曹县","zipcode":"274400"},{"name":"单县","zipcode":"273700"},{"name":"成武县","zipcode":"274200"},{"name":"巨野县","zipcode":"274900"},{"name":"郓城县","zipcode":"274700"},{"name":"鄄城县","zipcode":"274600"},{"name":"东明县","zipcode":"274500"}]}]},{"name":"河南省","city":[{"name":"郑州市","area":[{"name":"中原区","zipcode":"450007"},{"name":"二七区","zipcode":"450052"},{"name":"管城回族区","zipcode":"450000"},{"name":"金水区","zipcode":"450003"},{"name":"上街区","zipcode":"450041"},{"name":"惠济区","zipcode":"450053"},{"name":"巩义市","zipcode":"451200"},{"name":"荥阳市","zipcode":"450100"},{"name":"新密市","zipcode":"452300"},{"name":"新郑市","zipcode":"451100"},{"name":"登封市","zipcode":"452470"},{"name":"中牟县","zipcode":"451450"}]},{"name":"开封市","area":[{"name":"鼓楼区","zipcode":"210009"},{"name":"龙亭区","zipcode":"475100"},{"name":"顺河回族区","zipcode":"475000"},{"name":"禹王台区","zipcode":"475003"},{"name":"祥符区","zipcode":"475100"},{"name":"杞县","zipcode":"475200"},{"name":"通许县","zipcode":"475400"},{"name":"尉氏县","zipcode":"475500"},{"name":"兰考县","zipcode":"475300"}]},{"name":"洛阳市","area":[{"name":"西工区","zipcode":"471000"},{"name":"老城区","zipcode":"471002"},{"name":"瀍河回族区","zipcode":"471002"},{"name":"涧西区","zipcode":"471003"},{"name":"吉利区","zipcode":"471012"},{"name":"洛龙区","zipcode":"471000"},{"name":"偃师市","zipcode":"471900"},{"name":"孟津县","zipcode":"471100"},{"name":"新安县","zipcode":"471800"},{"name":"栾川县","zipcode":"471500"},{"name":"嵩县","zipcode":"471400"},{"name":"汝阳县","zipcode":"471200"},{"name":"宜阳县","zipcode":"471600"},{"name":"洛宁县","zipcode":"471700"},{"name":"伊川县","zipcode":"471300"}]},{"name":"平顶山市","area":[{"name":"新华区","zipcode":"050051"},{"name":"卫东区","zipcode":"467021"},{"name":"石龙区","zipcode":"467045"},{"name":"湛河区","zipcode":"467000"},{"name":"舞钢市","zipcode":"462500"},{"name":"汝州市","zipcode":"467500"},{"name":"宝丰县","zipcode":"467400"},{"name":"叶县","zipcode":"467200"},{"name":"鲁山县","zipcode":"467300"},{"name":"郏县","zipcode":"467100"}]},{"name":"安阳市","area":[{"name":"北关区","zipcode":"455001"},{"name":"文峰区","zipcode":"455000"},{"name":"殷都区","zipcode":"455004"},{"name":"龙安区","zipcode":"455001"},{"name":"林州市","zipcode":"456550"},{"name":"安阳县","zipcode":"455000"},{"name":"汤阴县","zipcode":"456150"},{"name":"滑县","zipcode":"456400"},{"name":"内黄县","zipcode":"456350"}]},{"name":"鹤壁市","area":[{"name":"淇滨区","zipcode":"458000"},{"name":"鹤山区","zipcode":"458010"},{"name":"山城区","zipcode":"458000"},{"name":"浚县","zipcode":"456250"},{"name":"淇县","zipcode":"456750"}]},{"name":"新乡市","area":[{"name":"卫滨区","zipcode":"453000"},{"name":"红旗区","zipcode":"453000"},{"name":"凤泉区","zipcode":"453011"},{"name":"牧野区","zipcode":"453002"},{"name":"卫辉市","zipcode":"453100"},{"name":"辉县市","zipcode":"453600"},{"name":"新乡县","zipcode":"453700"},{"name":"获嘉县","zipcode":"453800"},{"name":"原阳县","zipcode":"453500"},{"name":"延津县","zipcode":"453200"},{"name":"封丘县","zipcode":"453300"},{"name":"长垣县","zipcode":"453400"}]},{"name":"焦作市","area":[{"name":"解放区","zipcode":"454000"},{"name":"中站区","zipcode":"454191"},{"name":"马村区","zipcode":"454171"},{"name":"山阳区","zipcode":"454002"},{"name":"沁阳市","zipcode":"454550"},{"name":"孟州市","zipcode":"454750"},{"name":"修武县","zipcode":"454350"},{"name":"博爱县","zipcode":"454450"},{"name":"武陟县","zipcode":"454950"},{"name":"温县","zipcode":"454850"}]},{"name":"濮阳市","area":[{"name":"华龙区","zipcode":"457001"},{"name":"清丰县","zipcode":"457300"},{"name":"南乐县","zipcode":"457400"},{"name":"范县","zipcode":"457500"},{"name":"台前县","zipcode":"457600"},{"name":"濮阳县","zipcode":"457100"}]},{"name":"许昌市","area":[{"name":"魏都区","zipcode":"461000"},{"name":"建安区","zipcode":"461100"},{"name":"禹州市","zipcode":"461670"},{"name":"长葛市","zipcode":"461500"},{"name":"鄢陵县","zipcode":"461200"},{"name":"襄城县","zipcode":"461700"}]},{"name":"漯河市","area":[{"name":"郾城区","zipcode":"462300"},{"name":"源汇区","zipcode":"462000"},{"name":"召陵区","zipcode":"462300"},{"name":"舞阳县","zipcode":"462400"},{"name":"临颍县","zipcode":"462600"}]},{"name":"三门峡市","area":[{"name":"湖滨区","zipcode":"472000"},{"name":"陕州区","zipcode":"472100"},{"name":"义马市","zipcode":"472300"},{"name":"灵宝市","zipcode":"472500"},{"name":"渑池县","zipcode":"472400"},{"name":"卢氏县","zipcode":"472200"}]},{"name":"南阳市","area":[{"name":"卧龙区","zipcode":"473003"},{"name":"宛城区","zipcode":"473001"},{"name":"邓州市","zipcode":"474150"},{"name":"南召县","zipcode":"474650"},{"name":"方城县","zipcode":"473200"},{"name":"西峡县","zipcode":"474550"},{"name":"镇平县","zipcode":"474250"},{"name":"内乡县","zipcode":"474350"},{"name":"淅川县","zipcode":"474450"},{"name":"社旗县","zipcode":"473300"},{"name":"唐河县","zipcode":"473400"},{"name":"新野县","zipcode":"473500"},{"name":"桐柏县","zipcode":"474750"}]},{"name":"商丘市","area":[{"name":"梁园区","zipcode":"476000"},{"name":"睢阳区","zipcode":"476100"},{"name":"永城市","zipcode":"476600"},{"name":"民权县","zipcode":"476800"},{"name":"睢县","zipcode":"476900"},{"name":"宁陵县","zipcode":"476700"},{"name":"柘城县","zipcode":"476200"},{"name":"虞城县","zipcode":"476300"},{"name":"夏邑县","zipcode":"476400"}]},{"name":"信阳市","area":[{"name":"浉河区","zipcode":"464000"},{"name":"平桥区","zipcode":"464100"},{"name":"罗山县","zipcode":"464200"},{"name":"光山县","zipcode":"465450"},{"name":"新县","zipcode":"465550"},{"name":"商城县","zipcode":"465350"},{"name":"固始县","zipcode":"465250"},{"name":"潢川县","zipcode":"465150"},{"name":"淮滨县","zipcode":"464400"},{"name":"息县","zipcode":"464300"}]},{"name":"周口市","area":[{"name":"川汇区","zipcode":"466000"},{"name":"项城市","zipcode":"466200"},{"name":"扶沟县","zipcode":"461300"},{"name":"西华县","zipcode":"466600"},{"name":"商水县","zipcode":"466100"},{"name":"沈丘县","zipcode":"466300"},{"name":"郸城县","zipcode":"477150"},{"name":"淮阳县","zipcode":"466700"},{"name":"太康县","zipcode":"461400"},{"name":"鹿邑县","zipcode":"477200"}]},{"name":"驻马店市","area":[{"name":"驿城区","zipcode":"463000"},{"name":"西平县","zipcode":"463900"},{"name":"上蔡县","zipcode":"463800"},{"name":"平舆县","zipcode":"463400"},{"name":"正阳县","zipcode":"463600"},{"name":"确山县","zipcode":"463200"},{"name":"泌阳县","zipcode":"463700"},{"name":"汝南县","zipcode":"463300"},{"name":"遂平县","zipcode":"463100"},{"name":"新蔡县","zipcode":"463500"}]},{"name":"省直辖县级行政单位","area":[{"name":"济源市","zipcode":"454650"}]}]},{"name":"湖北省","city":[{"name":"武汉市","area":[{"name":"江岸区","zipcode":"430014"},{"name":"江汉区","zipcode":"430021"},{"name":"硚口区","zipcode":"430033"},{"name":"汉阳区","zipcode":"430050"},{"name":"武昌区","zipcode":"430061"},{"name":"青山区","zipcode":"014030"},{"name":"洪山区","zipcode":"430070"},{"name":"东西湖区","zipcode":"430040"},{"name":"汉南区","zipcode":"430090"},{"name":"蔡甸区","zipcode":"430100"},{"name":"江夏区","zipcode":"430200"},{"name":"黄陂区","zipcode":"432200"},{"name":"新洲区","zipcode":"431400"}]},{"name":"黄石市","area":[{"name":"下陆区","zipcode":"435005"},{"name":"黄石港区","zipcode":"435000"},{"name":"西塞山区","zipcode":"435001"},{"name":"铁山区","zipcode":"435006"},{"name":"大冶市","zipcode":"435100"},{"name":"阳新县","zipcode":"435200"}]},{"name":"十堰市","area":[{"name":"茅箭区","zipcode":"442012"},{"name":"张湾区","zipcode":"442001"},{"name":"郧阳区","zipcode":"442500"},{"name":"丹江口市","zipcode":"442700"},{"name":"郧西县","zipcode":"442600"},{"name":"竹山县","zipcode":"442200"},{"name":"竹溪县","zipcode":"442300"},{"name":"房县","zipcode":"442100"}]},{"name":"宜昌市","area":[{"name":"西陵区","zipcode":"443000"},{"name":"伍家岗区","zipcode":"443000"},{"name":"点军区","zipcode":"443004"},{"name":"猇亭区","zipcode":"443007"},{"name":"夷陵区","zipcode":"443100"},{"name":"宜都市","zipcode":"443300"},{"name":"当阳市","zipcode":"444100"},{"name":"枝江市","zipcode":"443200"},{"name":"远安县","zipcode":"444299"},{"name":"兴山县","zipcode":"443799"},{"name":"秭归县","zipcode":"443600"},{"name":"长阳土家族自治县","zipcode":"443500"},{"name":"五峰土家族自治县","zipcode":"443400"}]},{"name":"襄阳市","area":[{"name":"襄城区","zipcode":"441021"},{"name":"樊城区","zipcode":"441002"},{"name":"襄州区","zipcode":"441100"},{"name":"老河口市","zipcode":"441800"},{"name":"枣阳市","zipcode":"441200"},{"name":"宜城市","zipcode":"441400"},{"name":"南漳县","zipcode":"441500"},{"name":"谷城县","zipcode":"441700"},{"name":"保康县","zipcode":"441600"}]},{"name":"鄂州市","area":[{"name":"鄂城区","zipcode":"436099"},{"name":"梁子湖区","zipcode":"436060"},{"name":"华容区","zipcode":"436030"}]},{"name":"荆门市","area":[{"name":"东宝区","zipcode":"448004"},{"name":"掇刀区","zipcode":"448124"},{"name":"钟祥市","zipcode":"431900"},{"name":"京山县","zipcode":"431800"},{"name":"沙洋县","zipcode":"448200"}]},{"name":"孝感市","area":[{"name":"孝南区","zipcode":"432100"},{"name":"应城市","zipcode":"432400"},{"name":"安陆市","zipcode":"432600"},{"name":"汉川市","zipcode":"431600"},{"name":"孝昌县","zipcode":"432900"},{"name":"大悟县","zipcode":"432800"},{"name":"云梦县","zipcode":"432500"}]},{"name":"荆州市","area":[{"name":"沙市区","zipcode":"434000"},{"name":"荆州区","zipcode":"434020"},{"name":"石首市","zipcode":"434400"},{"name":"洪湖市","zipcode":"433200"},{"name":"松滋市","zipcode":"434200"},{"name":"公安县","zipcode":"434300"},{"name":"监利县","zipcode":"433300"},{"name":"江陵县","zipcode":"434101"}]},{"name":"黄冈市","area":[{"name":"黄州区","zipcode":"438000"},{"name":"麻城市","zipcode":"438300"},{"name":"武穴市","zipcode":"435400"},{"name":"团风县","zipcode":"438800"},{"name":"红安县","zipcode":"438401"},{"name":"罗田县","zipcode":"438600"},{"name":"英山县","zipcode":"438700"},{"name":"浠水县","zipcode":"438200"},{"name":"蕲春县","zipcode":"435300"},{"name":"黄梅县","zipcode":"435500"}]},{"name":"咸宁市","area":[{"name":"咸安区","zipcode":"437000"},{"name":"赤壁市","zipcode":"437300"},{"name":"嘉鱼县","zipcode":"437200"},{"name":"通城县","zipcode":"437400"},{"name":"崇阳县","zipcode":"437500"},{"name":"通山县","zipcode":"437600"}]},{"name":"随州市","area":[{"name":"曾都区","zipcode":"441300"},{"name":"广水市","zipcode":"432700"},{"name":"随县","zipcode":"441309"}]},{"name":"恩施土家族苗族自治州","area":[{"name":"恩施市","zipcode":"445000"},{"name":"利川市","zipcode":"445400"},{"name":"建始县","zipcode":"445300"},{"name":"巴东县","zipcode":"444300"},{"name":"宣恩县","zipcode":"445500"},{"name":"咸丰县","zipcode":"445600"},{"name":"来凤县","zipcode":"445700"},{"name":"鹤峰县","zipcode":"445800"}]},{"name":"省直辖县级行政单位","area":[{"name":"仙桃市","zipcode":"433000"},{"name":"潜江市","zipcode":"433199"},{"name":"天门市","zipcode":"431700"},{"name":"神农架林区","zipcode":"442400"}]}]},{"name":"湖南省","city":[{"name":"长沙市","area":[{"name":"岳麓区","zipcode":"410013"},{"name":"芙蓉区","zipcode":"410011"},{"name":"天心区","zipcode":"410004"},{"name":"开福区","zipcode":"410008"},{"name":"雨花区","zipcode":"410011"},{"name":"望城区","zipcode":"410200"},{"name":"浏阳市","zipcode":"410300"},{"name":"宁乡市","zipcode":"410600"},{"name":"长沙县","zipcode":"410100"}]},{"name":"株洲市","area":[{"name":"天元区","zipcode":"412007"},{"name":"荷塘区","zipcode":"412000"},{"name":"芦淞区","zipcode":"412000"},{"name":"石峰区","zipcode":"412005"},{"name":"醴陵市","zipcode":"412200"},{"name":"株洲县","zipcode":"412100"},{"name":"攸县","zipcode":"412300"},{"name":"茶陵县","zipcode":"412400"},{"name":"炎陵县","zipcode":"412500"}]},{"name":"湘潭市","area":[{"name":"岳塘区","zipcode":"411101"},{"name":"雨湖区","zipcode":"411100"},{"name":"湘乡市","zipcode":"411400"},{"name":"韶山市","zipcode":"411300"},{"name":"湘潭县","zipcode":"411228"}]},{"name":"衡阳市","area":[{"name":"蒸湘区","zipcode":"421001"},{"name":"珠晖区","zipcode":"421002"},{"name":"雁峰区","zipcode":"421001"},{"name":"石鼓区","zipcode":"421005"},{"name":"南岳区","zipcode":"421900"},{"name":"耒阳市","zipcode":"421800"},{"name":"常宁市","zipcode":"421500"},{"name":"衡阳县","zipcode":"421200"},{"name":"衡南县","zipcode":"421131"},{"name":"衡山县","zipcode":"421300"},{"name":"衡东县","zipcode":"421400"},{"name":"祁东县","zipcode":"421600"}]},{"name":"邵阳市","area":[{"name":"大祥区","zipcode":"422000"},{"name":"双清区","zipcode":"422001"},{"name":"北塔区","zipcode":"422007"},{"name":"武冈市","zipcode":"422400"},{"name":"邵东县","zipcode":"422800"},{"name":"新邵县","zipcode":"422900"},{"name":"邵阳县","zipcode":"422100"},{"name":"隆回县","zipcode":"422200"},{"name":"洞口县","zipcode":"422300"},{"name":"绥宁县","zipcode":"422600"},{"name":"新宁县","zipcode":"422700"},{"name":"城步苗族自治县","zipcode":"422500"}]},{"name":"岳阳市","area":[{"name":"岳阳楼区","zipcode":"414000"},{"name":"云溪区","zipcode":"414009"},{"name":"君山区","zipcode":"414005"},{"name":"汨罗市","zipcode":"414400"},{"name":"临湘市","zipcode":"414300"},{"name":"岳阳县","zipcode":"414100"},{"name":"华容县","zipcode":"414200"},{"name":"湘阴县","zipcode":"414600"},{"name":"平江县","zipcode":"414500"}]},{"name":"常德市","area":[{"name":"武陵区","zipcode":"415000"},{"name":"鼎城区","zipcode":"415101"},{"name":"津市市","zipcode":"415400"},{"name":"安乡县","zipcode":"415600"},{"name":"汉寿县","zipcode":"415900"},{"name":"澧县","zipcode":"415500"},{"name":"临澧县","zipcode":"415200"},{"name":"桃源县","zipcode":"415700"},{"name":"石门县","zipcode":"415300"}]},{"name":"张家界市","area":[{"name":"永定区","zipcode":"364100"},{"name":"武陵源区","zipcode":"427400"},{"name":"慈利县","zipcode":"427200"},{"name":"桑植县","zipcode":"427100"}]},{"name":"益阳市","area":[{"name":"赫山区","zipcode":"413002"},{"name":"资阳区","zipcode":"413001"},{"name":"沅江市","zipcode":"413100"},{"name":"南县","zipcode":"413200"},{"name":"桃江县","zipcode":"413400"},{"name":"安化县","zipcode":"413500"}]},{"name":"郴州市","area":[{"name":"北湖区","zipcode":"423000"},{"name":"苏仙区","zipcode":"423000"},{"name":"资兴市","zipcode":"423400"},{"name":"桂阳县","zipcode":"424400"},{"name":"宜章县","zipcode":"424200"},{"name":"永兴县","zipcode":"423300"},{"name":"嘉禾县","zipcode":"424500"},{"name":"临武县","zipcode":"424300"},{"name":"汝城县","zipcode":"424100"},{"name":"桂东县","zipcode":"423500"},{"name":"安仁县","zipcode":"423600"}]},{"name":"永州市","area":[{"name":"冷水滩区","zipcode":"425100"},{"name":"零陵区","zipcode":"425100"},{"name":"祁阳县","zipcode":"426100"},{"name":"东安县","zipcode":"425900"},{"name":"双牌县","zipcode":"425200"},{"name":"道县","zipcode":"425300"},{"name":"江永县","zipcode":"425400"},{"name":"宁远县","zipcode":"425600"},{"name":"蓝山县","zipcode":"425800"},{"name":"新田县","zipcode":"425700"},{"name":"江华瑶族自治县","zipcode":"425500"}]},{"name":"怀化市","area":[{"name":"鹤城区","zipcode":"418000"},{"name":"洪江市","zipcode":"418100"},{"name":"中方县","zipcode":"418005"},{"name":"沅陵县","zipcode":"419600"},{"name":"辰溪县","zipcode":"419500"},{"name":"溆浦县","zipcode":"419300"},{"name":"会同县","zipcode":"418300"},{"name":"麻阳苗族自治县","zipcode":"419400"},{"name":"新晃侗族自治县","zipcode":"419200"},{"name":"芷江侗族自治县","zipcode":"419100"},{"name":"靖州苗族侗族自治县","zipcode":"418400"},{"name":"通道侗族自治县","zipcode":"418500"}]},{"name":"娄底市","area":[{"name":"娄星区","zipcode":"417000"},{"name":"冷水江市","zipcode":"417500"},{"name":"涟源市","zipcode":"417100"},{"name":"双峰县","zipcode":"417700"},{"name":"新化县","zipcode":"417600"}]},{"name":"湘西土家族苗族自治州","area":[{"name":"吉首市","zipcode":"416000"},{"name":"泸溪县","zipcode":"416100"},{"name":"凤凰县","zipcode":"416200"},{"name":"花垣县","zipcode":"416400"},{"name":"保靖县","zipcode":"416500"},{"name":"古丈县","zipcode":"416300"},{"name":"永顺县","zipcode":"416700"},{"name":"龙山县","zipcode":"416800"}]}]},{"name":"广东省","city":[{"name":"广州市","area":[{"name":"越秀区","zipcode":"510030"},{"name":"荔湾区","zipcode":"510170"},{"name":"海珠区","zipcode":"510300"},{"name":"天河区","zipcode":"510665"},{"name":"白云区","zipcode":"510405"},{"name":"黄埔区","zipcode":"510700"},{"name":"番禺区","zipcode":"511400"},{"name":"花都区","zipcode":"510800"},{"name":"南沙区","zipcode":"511458"},{"name":"增城区","zipcode":"511300"},{"name":"从化区","zipcode":"510900"}]},{"name":"韶关市","area":[{"name":"浈江区","zipcode":"512023"},{"name":"武江区","zipcode":"512026"},{"name":"曲江区","zipcode":"512101"},{"name":"乐昌市","zipcode":"512200"},{"name":"南雄市","zipcode":"512400"},{"name":"始兴县","zipcode":"512500"},{"name":"仁化县","zipcode":"512300"},{"name":"翁源县","zipcode":"512600"},{"name":"新丰县","zipcode":"511100"},{"name":"乳源瑶族自治县","zipcode":"512700"}]},{"name":"深圳市","area":[{"name":"福田区","zipcode":"518048"},{"name":"罗湖区","zipcode":"518021"},{"name":"南山区","zipcode":"154104"},{"name":"宝安区","zipcode":"518101"},{"name":"龙岗区","zipcode":"518172"},{"name":"盐田区","zipcode":"518081"},{"name":"龙华区","zipcode":"0"},{"name":"坪山区","zipcode":"0"}]},{"name":"珠海市","area":[{"name":"香洲区","zipcode":"519000"},{"name":"斗门区","zipcode":"519110"},{"name":"金湾区","zipcode":"519040"}]},{"name":"汕头市","area":[{"name":"金平区","zipcode":"515041"},{"name":"龙湖区","zipcode":"515041"},{"name":"濠江区","zipcode":"515071"},{"name":"潮阳区","zipcode":"515100"},{"name":"潮南区","zipcode":"515144"},{"name":"澄海区","zipcode":"515800"},{"name":"南澳县","zipcode":"515900"}]},{"name":"佛山市","area":[{"name":"禅城区","zipcode":"528000"},{"name":"南海区","zipcode":"528251"},{"name":"顺德区","zipcode":"528300"},{"name":"三水区","zipcode":"528133"},{"name":"高明区","zipcode":"528500"}]},{"name":"江门市","area":[{"name":"蓬江区","zipcode":"529000"},{"name":"江海区","zipcode":"529040"},{"name":"新会区","zipcode":"529100"},{"name":"台山市","zipcode":"529200"},{"name":"开平市","zipcode":"529337"},{"name":"鹤山市","zipcode":"529700"},{"name":"恩平市","zipcode":"529400"}]},{"name":"湛江市","area":[{"name":"赤坎区","zipcode":"524033"},{"name":"霞山区","zipcode":"524011"},{"name":"坡头区","zipcode":"524057"},{"name":"麻章区","zipcode":"524094"},{"name":"廉江市","zipcode":"524400"},{"name":"雷州市","zipcode":"524200"},{"name":"吴川市","zipcode":"524500"},{"name":"遂溪县","zipcode":"524300"},{"name":"徐闻县","zipcode":"524100"}]},{"name":"茂名市","area":[{"name":"茂南区","zipcode":"525000"},{"name":"电白区","zipcode":"525400"},{"name":"高州市","zipcode":"525200"},{"name":"化州市","zipcode":"525100"},{"name":"信宜市","zipcode":"525300"}]},{"name":"肇庆市","area":[{"name":"端州区","zipcode":"526060"},{"name":"鼎湖区","zipcode":"526070"},{"name":"高要区","zipcode":"526100"},{"name":"四会市","zipcode":"526200"},{"name":"广宁县","zipcode":"526300"},{"name":"怀集县","zipcode":"526400"},{"name":"封开县","zipcode":"526500"},{"name":"德庆县","zipcode":"526600"}]},{"name":"惠州市","area":[{"name":"惠城区","zipcode":"516008"},{"name":"惠阳区","zipcode":"516211"},{"name":"博罗县","zipcode":"516100"},{"name":"惠东县","zipcode":"516300"},{"name":"龙门县","zipcode":"516800"}]},{"name":"梅州市","area":[{"name":"梅江区","zipcode":"514000"},{"name":"梅县区","zipcode":"514787"},{"name":"兴宁市","zipcode":"514500"},{"name":"大埔县","zipcode":"514200"},{"name":"丰顺县","zipcode":"514300"},{"name":"五华县","zipcode":"514400"},{"name":"平远县","zipcode":"514600"},{"name":"蕉岭县","zipcode":"514100"}]},{"name":"汕尾市","area":[{"name":"城区","zipcode":"037008"},{"name":"陆丰市","zipcode":"516500"},{"name":"海丰县","zipcode":"516400"},{"name":"陆河县","zipcode":"516700"}]},{"name":"河源市","area":[{"name":"源城区","zipcode":"517000"},{"name":"紫金县","zipcode":"517400"},{"name":"龙川县","zipcode":"517300"},{"name":"连平县","zipcode":"517100"},{"name":"和平县","zipcode":"517200"},{"name":"东源县","zipcode":"517583"}]},{"name":"阳江市","area":[{"name":"江城区","zipcode":"529500"},{"name":"阳东区","zipcode":"529900"},{"name":"阳春市","zipcode":"529600"},{"name":"阳西县","zipcode":"529800"}]},{"name":"清远市","area":[{"name":"清城区","zipcode":"511515"},{"name":"清新区","zipcode":"511810"},{"name":"英德市","zipcode":"513000"},{"name":"连州市","zipcode":"513400"},{"name":"佛冈县","zipcode":"511600"},{"name":"阳山县","zipcode":"513100"},{"name":"连山壮族瑶族自治县","zipcode":"513200"},{"name":"连南瑶族自治县","zipcode":"513300"}]},{"name":"东莞市","area":[{"name":"东莞市","zipcode":"523888"}]},{"name":"中山市","area":[{"name":"中山市","zipcode":"528403"}]},{"name":"潮州市","area":[{"name":"湘桥区","zipcode":"521021"},{"name":"潮安区","zipcode":"515638"},{"name":"饶平县","zipcode":"515700"}]},{"name":"揭阳市","area":[{"name":"榕城区","zipcode":"522000"},{"name":"揭东区","zipcode":"515500"},{"name":"普宁市","zipcode":"515300"},{"name":"揭西县","zipcode":"515400"},{"name":"惠来县","zipcode":"515200"}]},{"name":"云浮市","area":[{"name":"云城区","zipcode":"527300"},{"name":"云安区","zipcode":"527500"},{"name":"罗定市","zipcode":"527200"},{"name":"新兴县","zipcode":"527400"},{"name":"郁南县","zipcode":"527100"}]}]},{"name":"广西壮族自治区","city":[{"name":"南宁市","area":[{"name":"青秀区","zipcode":"530213"},{"name":"兴宁区","zipcode":"530023"},{"name":"江南区","zipcode":"530031"},{"name":"西乡塘区","zipcode":"530001"},{"name":"良庆区","zipcode":"530219"},{"name":"邕宁区","zipcode":"530200"},{"name":"武鸣区","zipcode":"530100"},{"name":"隆安县","zipcode":"532700"},{"name":"马山县","zipcode":"530600"},{"name":"上林县","zipcode":"530500"},{"name":"宾阳县","zipcode":"530400"},{"name":"横县","zipcode":"530300"}]},{"name":"柳州市","area":[{"name":"柳北区","zipcode":"545002"},{"name":"城中区","zipcode":"545001"},{"name":"鱼峰区","zipcode":"545005"},{"name":"柳南区","zipcode":"545007"},{"name":"柳江区","zipcode":"545100"},{"name":"柳城县","zipcode":"545200"},{"name":"鹿寨县","zipcode":"545600"},{"name":"融安县","zipcode":"545400"},{"name":"融水苗族自治县","zipcode":"545300"},{"name":"三江侗族自治县","zipcode":"545500"}]},{"name":"桂林市","area":[{"name":"临桂区","zipcode":"541100"},{"name":"秀峰区","zipcode":"541001"},{"name":"叠彩区","zipcode":"541001"},{"name":"象山区","zipcode":"541002"},{"name":"七星区","zipcode":"541004"},{"name":"雁山区","zipcode":"541006"},{"name":"阳朔县","zipcode":"541900"},{"name":"灵川县","zipcode":"541200"},{"name":"全州县","zipcode":"541503"},{"name":"兴安县","zipcode":"541300"},{"name":"永福县","zipcode":"541800"},{"name":"灌阳县","zipcode":"541600"},{"name":"资源县","zipcode":"541400"},{"name":"平乐县","zipcode":"542400"},{"name":"荔浦县","zipcode":"546600"},{"name":"龙胜各族自治县","zipcode":"541700"},{"name":"恭城瑶族自治县","zipcode":"542500"}]},{"name":"梧州市","area":[{"name":"长洲区","zipcode":"543003"},{"name":"万秀区","zipcode":"543000"},{"name":"龙圩区","zipcode":"543002"},{"name":"岑溪市","zipcode":"543200"},{"name":"苍梧县","zipcode":"543100"},{"name":"藤县","zipcode":"543300"},{"name":"蒙山县","zipcode":"546700"}]},{"name":"北海市","area":[{"name":"海城区","zipcode":"536000"},{"name":"银海区","zipcode":"536000"},{"name":"铁山港区","zipcode":"536017"},{"name":"合浦县","zipcode":"536100"}]},{"name":"防城港市","area":[{"name":"港口区","zipcode":"538001"},{"name":"防城区","zipcode":"538021"},{"name":"东兴市","zipcode":"538100"},{"name":"上思县","zipcode":"535500"}]},{"name":"钦州市","area":[{"name":"钦南区","zipcode":"535099"},{"name":"钦北区","zipcode":"535099"},{"name":"灵山县","zipcode":"535099"},{"name":"浦北县","zipcode":"535099"}]},{"name":"贵港市","area":[{"name":"港北区","zipcode":"537100"},{"name":"港南区","zipcode":"537100"},{"name":"覃塘区","zipcode":"537121"},{"name":"桂平市","zipcode":"537200"},{"name":"平南县","zipcode":"537300"}]},{"name":"玉林市","area":[{"name":"玉州区","zipcode":"537000"},{"name":"福绵区","zipcode":"537023"},{"name":"北流市","zipcode":"537400"},{"name":"容县","zipcode":"537500"},{"name":"陆川县","zipcode":"537700"},{"name":"博白县","zipcode":"537600"},{"name":"兴业县","zipcode":"537800"}]},{"name":"百色市","area":[{"name":"右江区","zipcode":"533000"},{"name":"靖西市","zipcode":"533800"},{"name":"田阳县","zipcode":"533600"},{"name":"田东县","zipcode":"531500"},{"name":"平果县","zipcode":"531400"},{"name":"德保县","zipcode":"533700"},{"name":"那坡县","zipcode":"533900"},{"name":"凌云县","zipcode":"533100"},{"name":"乐业县","zipcode":"533200"},{"name":"田林县","zipcode":"533300"},{"name":"西林县","zipcode":"533500"},{"name":"隆林各族自治县","zipcode":"533400"}]},{"name":"贺州市","area":[{"name":"八步区","zipcode":"542800"},{"name":"平桂区","zipcode":"542800"},{"name":"昭平县","zipcode":"546800"},{"name":"钟山县","zipcode":"542600"},{"name":"富川瑶族自治县","zipcode":"542700"}]},{"name":"河池市","area":[{"name":"金城江区","zipcode":"547000"},{"name":"宜州区","zipcode":"546300"},{"name":"南丹县","zipcode":"547200"},{"name":"天峨县","zipcode":"547300"},{"name":"凤山县","zipcode":"547600"},{"name":"东兰县","zipcode":"547400"},{"name":"罗城仫佬族自治县","zipcode":"546400"},{"name":"环江毛南族自治县","zipcode":"547100"},{"name":"巴马瑶族自治县","zipcode":"547500"},{"name":"都安瑶族自治县","zipcode":"530700"},{"name":"大化瑶族自治县","zipcode":"530800"}]},{"name":"来宾市","area":[{"name":"兴宾区","zipcode":"546100"},{"name":"合山市","zipcode":"546500"},{"name":"忻城县","zipcode":"546200"},{"name":"象州县","zipcode":"545800"},{"name":"武宣县","zipcode":"545900"},{"name":"金秀瑶族自治县","zipcode":"545799"}]},{"name":"崇左市","area":[{"name":"江州区","zipcode":"532299"},{"name":"凭祥市","zipcode":"532699"},{"name":"扶绥县","zipcode":"532199"},{"name":"宁明县","zipcode":"532599"},{"name":"龙州县","zipcode":"532499"},{"name":"大新县","zipcode":"532399"},{"name":"天等县","zipcode":"532899"}]}]},{"name":"海南省","city":[{"name":"海口市","area":[{"name":"龙华区","zipcode":"0"},{"name":"秀英区","zipcode":"570311"},{"name":"琼山区","zipcode":"571100"},{"name":"美兰区","zipcode":"570100"}]},{"name":"三亚市","area":[{"name":"吉阳区","zipcode":"572099"},{"name":"海棠区","zipcode":"572013"},{"name":"天涯区","zipcode":"572100"},{"name":"崖州区","zipcode":"572024"}]},{"name":"三沙市","area":[{"name":"三沙市","zipcode":"573199"}]},{"name":"儋州市","area":[{"name":"儋州市","zipcode":"571700"}]},{"name":"省直辖县级行政单位","area":[{"name":"五指山市","zipcode":"572200"},{"name":"琼海市","zipcode":"571400"},{"name":"文昌市","zipcode":"571339"},{"name":"万宁市","zipcode":"571500"},{"name":"东方市","zipcode":"572600"},{"name":"定安县","zipcode":"571200"},{"name":"屯昌县","zipcode":"571600"},{"name":"澄迈县","zipcode":"571900"},{"name":"临高县","zipcode":"571800"},{"name":"白沙黎族自治县","zipcode":"572800"},{"name":"昌江黎族自治县","zipcode":"572700"},{"name":"乐东黎族自治县","zipcode":"572500"},{"name":"陵水黎族自治县","zipcode":"572400"},{"name":"保亭黎族苗族自治县","zipcode":"572300"},{"name":"琼中黎族苗族自治县","zipcode":"572900"}]}]},{"name":"四川省","city":[{"name":"成都市","area":[{"name":"武侯区","zipcode":"610041"},{"name":"锦江区","zipcode":"610021"},{"name":"青羊区","zipcode":"610031"},{"name":"金牛区","zipcode":"610036"},{"name":"成华区","zipcode":"610066"},{"name":"龙泉驿区","zipcode":"610100"},{"name":"青白江区","zipcode":"610300"},{"name":"新都区","zipcode":"610500"},{"name":"温江区","zipcode":"611130"},{"name":"双流区","zipcode":"610200"},{"name":"郫都区","zipcode":"611730"},{"name":"都江堰市","zipcode":"611830"},{"name":"彭州市","zipcode":"611930"},{"name":"邛崃市","zipcode":"611530"},{"name":"崇州市","zipcode":"611230"},{"name":"简阳市","zipcode":"641400"},{"name":"金堂县","zipcode":"610400"},{"name":"大邑县","zipcode":"611330"},{"name":"蒲江县","zipcode":"611630"},{"name":"新津县","zipcode":"611430"}]},{"name":"自贡市","area":[{"name":"自流井区","zipcode":"643000"},{"name":"贡井区","zipcode":"643020"},{"name":"大安区","zipcode":"643010"},{"name":"沿滩区","zipcode":"643030"},{"name":"荣县","zipcode":"643100"},{"name":"富顺县","zipcode":"643200"}]},{"name":"攀枝花市","area":[{"name":"东区","zipcode":"617067"},{"name":"西区","zipcode":"617068"},{"name":"仁和区","zipcode":"617061"},{"name":"米易县","zipcode":"617200"},{"name":"盐边县","zipcode":"617100"}]},{"name":"泸州市","area":[{"name":"江阳区","zipcode":"646000"},{"name":"纳溪区","zipcode":"646300"},{"name":"龙马潭区","zipcode":"646000"},{"name":"泸县","zipcode":"646106"},{"name":"合江县","zipcode":"646200"},{"name":"叙永县","zipcode":"646400"},{"name":"古蔺县","zipcode":"646500"}]},{"name":"德阳市","area":[{"name":"旌阳区","zipcode":"618000"},{"name":"广汉市","zipcode":"618300"},{"name":"什邡市","zipcode":"618400"},{"name":"绵竹市","zipcode":"618200"},{"name":"罗江县","zipcode":"618500"},{"name":"中江县","zipcode":"618100"}]},{"name":"绵阳市","area":[{"name":"涪城区","zipcode":"621000"},{"name":"游仙区","zipcode":"621022"},{"name":"安州区","zipcode":"622650"},{"name":"江油市","zipcode":"621700"},{"name":"三台县","zipcode":"621100"},{"name":"盐亭县","zipcode":"621600"},{"name":"梓潼县","zipcode":"622150"},{"name":"平武县","zipcode":"622550"},{"name":"北川羌族自治县","zipcode":"622750"}]},{"name":"广元市","area":[{"name":"利州区","zipcode":"628017"},{"name":"昭化区","zipcode":"628017"},{"name":"朝天区","zipcode":"628017"},{"name":"旺苍县","zipcode":"628200"},{"name":"青川县","zipcode":"628100"},{"name":"剑阁县","zipcode":"628300"},{"name":"苍溪县","zipcode":"628400"}]},{"name":"遂宁市","area":[{"name":"船山区","zipcode":"629000"},{"name":"安居区","zipcode":"629000"},{"name":"蓬溪县","zipcode":"629100"},{"name":"射洪县","zipcode":"629200"},{"name":"大英县","zipcode":"629300"}]},{"name":"内江市","area":[{"name":"市中区","zipcode":"250001"},{"name":"东兴区","zipcode":"641100"},{"name":"隆昌市","zipcode":"642150"},{"name":"威远县","zipcode":"642450"},{"name":"资中县","zipcode":"641200"}]},{"name":"乐山市","area":[{"name":"市中区","zipcode":"250001"},{"name":"沙湾区","zipcode":"614900"},{"name":"五通桥区","zipcode":"614800"},{"name":"金口河区","zipcode":"614700"},{"name":"峨眉山市","zipcode":"614200"},{"name":"犍为县","zipcode":"614400"},{"name":"井研县","zipcode":"613100"},{"name":"夹江县","zipcode":"614100"},{"name":"沐川县","zipcode":"614500"},{"name":"峨边彝族自治县","zipcode":"614300"},{"name":"马边彝族自治县","zipcode":"614600"}]},{"name":"南充市","area":[{"name":"顺庆区","zipcode":"637000"},{"name":"高坪区","zipcode":"637100"},{"name":"嘉陵区","zipcode":"637100"},{"name":"阆中市","zipcode":"637400"},{"name":"南部县","zipcode":"637300"},{"name":"营山县","zipcode":"637700"},{"name":"蓬安县","zipcode":"637800"},{"name":"仪陇县","zipcode":"637600"},{"name":"西充县","zipcode":"637200"}]},{"name":"眉山市","area":[{"name":"东坡区","zipcode":"620010"},{"name":"彭山区","zipcode":"620860"},{"name":"仁寿县","zipcode":"620500"},{"name":"洪雅县","zipcode":"620360"},{"name":"丹棱县","zipcode":"620200"},{"name":"青神县","zipcode":"620460"}]},{"name":"宜宾市","area":[{"name":"翠屏区","zipcode":"644000"},{"name":"南溪区","zipcode":"644100"},{"name":"宜宾县","zipcode":"644600"},{"name":"江安县","zipcode":"644200"},{"name":"长宁县","zipcode":"644300"},{"name":"高县","zipcode":"645150"},{"name":"珙县","zipcode":"644500"},{"name":"筠连县","zipcode":"645250"},{"name":"兴文县","zipcode":"644400"},{"name":"屏山县","zipcode":"645350"}]},{"name":"广安市","area":[{"name":"广安区","zipcode":"638000"},{"name":"前锋区","zipcode":"638019"},{"name":"华蓥市","zipcode":"638600"},{"name":"岳池县","zipcode":"638300"},{"name":"武胜县","zipcode":"638400"},{"name":"邻水县","zipcode":"638500"}]},{"name":"达州市","area":[{"name":"通川区","zipcode":"635000"},{"name":"达川区","zipcode":"635000"},{"name":"万源市","zipcode":"636350"},{"name":"宣汉县","zipcode":"636150"},{"name":"开江县","zipcode":"636250"},{"name":"大竹县","zipcode":"635100"},{"name":"渠县","zipcode":"635200"}]},{"name":"雅安市","area":[{"name":"雨城区","zipcode":"625000"},{"name":"名山区","zipcode":"625100"},{"name":"荥经县","zipcode":"625200"},{"name":"汉源县","zipcode":"625300"},{"name":"石棉县","zipcode":"625400"},{"name":"天全县","zipcode":"625500"},{"name":"芦山县","zipcode":"625600"},{"name":"宝兴县","zipcode":"625700"}]},{"name":"巴中市","area":[{"name":"巴州区","zipcode":"636001"},{"name":"恩阳区","zipcode":"636064"},{"name":"通江县","zipcode":"636700"},{"name":"南江县","zipcode":"636600"},{"name":"平昌县","zipcode":"636400"}]},{"name":"资阳市","area":[{"name":"雁江区","zipcode":"641300"},{"name":"乐至县","zipcode":"641500"},{"name":"安岳县","zipcode":"642350"}]},{"name":"阿坝藏族羌族自治州","area":[{"name":"马尔康市","zipcode":"624000"},{"name":"汶川县","zipcode":"623000"},{"name":"理县","zipcode":"623100"},{"name":"茂县","zipcode":"623200"},{"name":"松潘县","zipcode":"623300"},{"name":"九寨沟县","zipcode":"623400"},{"name":"金川县","zipcode":"624100"},{"name":"小金县","zipcode":"624200"},{"name":"黑水县","zipcode":"623500"},{"name":"壤塘县","zipcode":"624300"},{"name":"阿坝县","zipcode":"624600"},{"name":"若尔盖县","zipcode":"624500"},{"name":"红原县","zipcode":"624400"}]},{"name":"甘孜藏族自治州","area":[{"name":"康定市","zipcode":"626000"},{"name":"泸定县","zipcode":"626100"},{"name":"丹巴县","zipcode":"626300"},{"name":"九龙县","zipcode":"626200"},{"name":"雅江县","zipcode":"627450"},{"name":"道孚县","zipcode":"626400"},{"name":"炉霍县","zipcode":"626500"},{"name":"甘孜县","zipcode":"626700"},{"name":"新龙县","zipcode":"626800"},{"name":"德格县","zipcode":"627250"},{"name":"白玉县","zipcode":"627150"},{"name":"石渠县","zipcode":"627350"},{"name":"色达县","zipcode":"626600"},{"name":"理塘县","zipcode":"627550"},{"name":"巴塘县","zipcode":"627650"},{"name":"乡城县","zipcode":"627850"},{"name":"稻城县","zipcode":"627750"},{"name":"得荣县","zipcode":"627950"}]},{"name":"凉山彝族自治州","area":[{"name":"西昌市","zipcode":"615000"},{"name":"盐源县","zipcode":"615700"},{"name":"德昌县","zipcode":"615500"},{"name":"会理县","zipcode":"615100"},{"name":"会东县","zipcode":"615200"},{"name":"宁南县","zipcode":"615400"},{"name":"普格县","zipcode":"615300"},{"name":"布拖县","zipcode":"616350"},{"name":"金阳县","zipcode":"616250"},{"name":"昭觉县","zipcode":"616150"},{"name":"喜德县","zipcode":"616750"},{"name":"冕宁县","zipcode":"615600"},{"name":"越西县","zipcode":"616650"},{"name":"甘洛县","zipcode":"616850"},{"name":"美姑县","zipcode":"616450"},{"name":"雷波县","zipcode":"616550"},{"name":"木里藏族自治县","zipcode":"615800"}]}]},{"name":"贵州省","city":[{"name":"贵阳市","area":[{"name":"乌当区","zipcode":"550018"},{"name":"南明区","zipcode":"550001"},{"name":"云岩区","zipcode":"550001"},{"name":"花溪区","zipcode":"550025"},{"name":"白云区","zipcode":"510405"},{"name":"观山湖区","zipcode":"550009"},{"name":"清镇市","zipcode":"551400"},{"name":"开阳县","zipcode":"550300"},{"name":"息烽县","zipcode":"551100"},{"name":"修文县","zipcode":"550200"}]},{"name":"六盘水市","area":[{"name":"钟山区","zipcode":"553000"},{"name":"盘州市","zipcode":"561601"},{"name":"水城县","zipcode":"553000"},{"name":"六枝特区","zipcode":"553400"}]},{"name":"遵义市","area":[{"name":"汇川区","zipcode":"563000"},{"name":"红花岗区","zipcode":"563000"},{"name":"播州区","zipcode":"563100"},{"name":"赤水市","zipcode":"564700"},{"name":"仁怀市","zipcode":"564500"},{"name":"桐梓县","zipcode":"563200"},{"name":"绥阳县","zipcode":"563300"},{"name":"正安县","zipcode":"563400"},{"name":"凤冈县","zipcode":"564200"},{"name":"湄潭县","zipcode":"564100"},{"name":"余庆县","zipcode":"564400"},{"name":"习水县","zipcode":"564600"},{"name":"道真仡佬族苗族自治县","zipcode":"563500"},{"name":"务川仡佬族苗族自治县","zipcode":"564300"}]},{"name":"安顺市","area":[{"name":"西秀区","zipcode":"561000"},{"name":"平坝区","zipcode":"561100"},{"name":"普定县","zipcode":"562100"},{"name":"镇宁布依族苗族自治县","zipcode":"561200"},{"name":"关岭布依族苗族自治县","zipcode":"561300"},{"name":"紫云苗族布依族自治县","zipcode":"550800"}]},{"name":"毕节市","area":[{"name":"七星关区","zipcode":"551700"},{"name":"大方县","zipcode":"551600"},{"name":"黔西县","zipcode":"551500"},{"name":"金沙县","zipcode":"551800"},{"name":"织金县","zipcode":"552100"},{"name":"纳雍县","zipcode":"553300"},{"name":"赫章县","zipcode":"553200"},{"name":"威宁彝族回族苗族自治县","zipcode":"553100"}]},{"name":"铜仁市","area":[{"name":"碧江区","zipcode":"554300"},{"name":"万山区","zipcode":"554200"},{"name":"江口县","zipcode":"554400"},{"name":"石阡县","zipcode":"555100"},{"name":"思南县","zipcode":"565100"},{"name":"德江县","zipcode":"565200"},{"name":"玉屏侗族自治县","zipcode":"554004"},{"name":"印江土家族苗族自治县","zipcode":"555200"},{"name":"沿河土家族自治县","zipcode":"565300"},{"name":"松桃苗族自治县","zipcode":"554100"}]},{"name":"黔西南布依族苗族自治州","area":[{"name":"兴义市","zipcode":"562400"},{"name":"兴仁县","zipcode":"562300"},{"name":"普安县","zipcode":"561500"},{"name":"晴隆县","zipcode":"561400"},{"name":"贞丰县","zipcode":"562200"},{"name":"望谟县","zipcode":"552300"},{"name":"册亨县","zipcode":"552200"},{"name":"安龙县","zipcode":"552400"}]},{"name":"黔东南苗族侗族自治州","area":[{"name":"凯里市","zipcode":"556000"},{"name":"黄平县","zipcode":"556100"},{"name":"施秉县","zipcode":"556200"},{"name":"三穗县","zipcode":"556500"},{"name":"镇远县","zipcode":"557700"},{"name":"岑巩县","zipcode":"557800"},{"name":"天柱县","zipcode":"556600"},{"name":"锦屏县","zipcode":"556700"},{"name":"剑河县","zipcode":"556400"},{"name":"台江县","zipcode":"556300"},{"name":"黎平县","zipcode":"557300"},{"name":"榕江县","zipcode":"557200"},{"name":"从江县","zipcode":"557400"},{"name":"雷山县","zipcode":"557100"},{"name":"麻江县","zipcode":"557600"},{"name":"丹寨县","zipcode":"557500"}]},{"name":"黔南布依族苗族自治州","area":[{"name":"都匀市","zipcode":"558000"},{"name":"福泉市","zipcode":"550500"},{"name":"荔波县","zipcode":"558400"},{"name":"贵定县","zipcode":"551300"},{"name":"瓮安县","zipcode":"550400"},{"name":"独山县","zipcode":"558200"},{"name":"平塘县","zipcode":"558300"},{"name":"罗甸县","zipcode":"550100"},{"name":"长顺县","zipcode":"550700"},{"name":"龙里县","zipcode":"551200"},{"name":"惠水县","zipcode":"550600"},{"name":"三都水族自治县","zipcode":"558100"}]}]},{"name":"云南省","city":[{"name":"昆明市","area":[{"name":"呈贡区","zipcode":"650500"},{"name":"五华区","zipcode":"650021"},{"name":"盘龙区","zipcode":"650051"},{"name":"官渡区","zipcode":"650200"},{"name":"西山区","zipcode":"650118"},{"name":"东川区","zipcode":"654100"},{"name":"晋宁区","zipcode":"650600"},{"name":"安宁市","zipcode":"650300"},{"name":"富民县","zipcode":"650400"},{"name":"宜良县","zipcode":"652100"},{"name":"嵩明县","zipcode":"651700"},{"name":"石林彝族自治县","zipcode":"652200"},{"name":"禄劝彝族苗族自治县","zipcode":"651500"},{"name":"寻甸回族彝族自治县","zipcode":"655200"}]},{"name":"曲靖市","area":[{"name":"麒麟区","zipcode":"655000"},{"name":"沾益区","zipcode":"655331"},{"name":"宣威市","zipcode":"655400"},{"name":"马龙县","zipcode":"655100"},{"name":"陆良县","zipcode":"655600"},{"name":"师宗县","zipcode":"655700"},{"name":"罗平县","zipcode":"655800"},{"name":"富源县","zipcode":"655500"},{"name":"会泽县","zipcode":"654200"}]},{"name":"玉溪市","area":[{"name":"红塔区","zipcode":"653100"},{"name":"江川区","zipcode":"652600"},{"name":"澄江县","zipcode":"652500"},{"name":"通海县","zipcode":"652700"},{"name":"华宁县","zipcode":"652800"},{"name":"易门县","zipcode":"651100"},{"name":"峨山彝族自治县","zipcode":"653200"},{"name":"新平彝族傣族自治县","zipcode":"653400"},{"name":"元江哈尼族彝族傣族自治县","zipcode":"653300"}]},{"name":"保山市","area":[{"name":"隆阳区","zipcode":"678000"},{"name":"腾冲市","zipcode":"679100"},{"name":"施甸县","zipcode":"678200"},{"name":"龙陵县","zipcode":"678300"},{"name":"昌宁县","zipcode":"678100"}]},{"name":"昭通市","area":[{"name":"昭阳区","zipcode":"657000"},{"name":"鲁甸县","zipcode":"657100"},{"name":"巧家县","zipcode":"654600"},{"name":"盐津县","zipcode":"657500"},{"name":"大关县","zipcode":"657400"},{"name":"永善县","zipcode":"657300"},{"name":"绥江县","zipcode":"657700"},{"name":"镇雄县","zipcode":"657200"},{"name":"彝良县","zipcode":"657600"},{"name":"威信县","zipcode":"657900"},{"name":"水富县","zipcode":"657800"}]},{"name":"丽江市","area":[{"name":"古城区","zipcode":"674100"},{"name":"永胜县","zipcode":"674200"},{"name":"华坪县","zipcode":"674800"},{"name":"玉龙纳西族自治县","zipcode":"674100"},{"name":"宁蒗彝族自治县","zipcode":"674300"}]},{"name":"普洱市","area":[{"name":"思茅区","zipcode":"665000"},{"name":"宁洱哈尼族彝族自治县","zipcode":"665100"},{"name":"墨江哈尼族自治县","zipcode":"654800"},{"name":"景东彝族自治县","zipcode":"676200"},{"name":"景谷傣族彝族自治县","zipcode":"666400"},{"name":"镇沅彝族哈尼族拉祜族自治县","zipcode":"666500"},{"name":"江城哈尼族彝族自治县","zipcode":"665900"},{"name":"孟连傣族拉祜族佤族自治县","zipcode":"665800"},{"name":"澜沧拉祜族自治县","zipcode":"665600"},{"name":"西盟佤族自治县","zipcode":"665700"}]},{"name":"临沧市","area":[{"name":"临翔区","zipcode":"677000"},{"name":"凤庆县","zipcode":"675900"},{"name":"云县","zipcode":"675800"},{"name":"永德县","zipcode":"677600"},{"name":"镇康县","zipcode":"677704"},{"name":"双江拉祜族佤族布朗族傣族自治县","zipcode":"677300"},{"name":"耿马傣族佤族自治县","zipcode":"677500"},{"name":"沧源佤族自治县","zipcode":"677400"}]},{"name":"楚雄彝族自治州","area":[{"name":"楚雄市","zipcode":"675000"},{"name":"双柏县","zipcode":"675100"},{"name":"牟定县","zipcode":"675500"},{"name":"南华县","zipcode":"675200"},{"name":"姚安县","zipcode":"675300"},{"name":"大姚县","zipcode":"675400"},{"name":"永仁县","zipcode":"651400"},{"name":"元谋县","zipcode":"651300"},{"name":"武定县","zipcode":"651600"},{"name":"禄丰县","zipcode":"651200"}]},{"name":"红河哈尼族彝族自治州","area":[{"name":"蒙自市","zipcode":"661101"},{"name":"个旧市","zipcode":"661000"},{"name":"开远市","zipcode":"661600"},{"name":"弥勒市","zipcode":"652300"},{"name":"建水县","zipcode":"654300"},{"name":"石屏县","zipcode":"662200"},{"name":"泸西县","zipcode":"652400"},{"name":"元阳县","zipcode":"662400"},{"name":"红河县","zipcode":"654400"},{"name":"绿春县","zipcode":"662500"},{"name":"屏边苗族自治县","zipcode":"661200"},{"name":"金平苗族瑶族傣族自治县","zipcode":"661500"},{"name":"河口瑶族自治县","zipcode":"661300"}]},{"name":"文山壮族苗族自治州","area":[{"name":"文山市","zipcode":"663000"},{"name":"砚山县","zipcode":"663100"},{"name":"西畴县","zipcode":"663500"},{"name":"麻栗坡县","zipcode":"663600"},{"name":"马关县","zipcode":"663700"},{"name":"丘北县","zipcode":"663200"},{"name":"广南县","zipcode":"663300"},{"name":"富宁县","zipcode":"663400"}]},{"name":"西双版纳傣族自治州","area":[{"name":"景洪市","zipcode":"666100"},{"name":"勐海县","zipcode":"666200"},{"name":"勐腊县","zipcode":"666300"}]},{"name":"大理白族自治州","area":[{"name":"大理市","zipcode":"671000"},{"name":"祥云县","zipcode":"672100"},{"name":"宾川县","zipcode":"671600"},{"name":"弥渡县","zipcode":"675600"},{"name":"永平县","zipcode":"672600"},{"name":"云龙县","zipcode":"672700"},{"name":"洱源县","zipcode":"671200"},{"name":"剑川县","zipcode":"671300"},{"name":"鹤庆县","zipcode":"671500"},{"name":"漾濞彝族自治县","zipcode":"672500"},{"name":"南涧彝族自治县","zipcode":"675700"},{"name":"巍山彝族回族自治县","zipcode":"672400"}]},{"name":"德宏傣族景颇族自治州","area":[{"name":"芒市","zipcode":"678400"},{"name":"瑞丽市","zipcode":"678600"},{"name":"梁河县","zipcode":"679200"},{"name":"盈江县","zipcode":"679300"},{"name":"陇川县","zipcode":"678700"}]},{"name":"怒江傈僳族自治州","area":[{"name":"泸水市","zipcode":"673100"},{"name":"福贡县","zipcode":"673400"},{"name":"贡山独龙族怒族自治县","zipcode":"673500"},{"name":"兰坪白族普米族自治县","zipcode":"671400"}]},{"name":"迪庆藏族自治州","area":[{"name":"香格里拉市","zipcode":"674400"},{"name":"德钦县","zipcode":"674500"},{"name":"维西傈僳族自治县","zipcode":"674600"}]}]},{"name":"西藏自治区","city":[{"name":"拉萨市","area":[{"name":"城关区","zipcode":"850000"},{"name":"林周县","zipcode":"851600"},{"name":"当雄县","zipcode":"851500"},{"name":"尼木县","zipcode":"851300"},{"name":"曲水县","zipcode":"850600"},{"name":"堆龙德庆区","zipcode":"851400"},{"name":"达孜县","zipcode":"850100"},{"name":"墨竹工卡县","zipcode":"850200"}]},{"name":"日喀则市","area":[{"name":"桑珠孜区","zipcode":"857000"},{"name":"南木林县","zipcode":"857100"},{"name":"江孜县","zipcode":"857400"},{"name":"定日县","zipcode":"858200"},{"name":"萨迦县","zipcode":"857800"},{"name":"拉孜县","zipcode":"858100"},{"name":"昂仁县","zipcode":"858500"},{"name":"谢通门县","zipcode":"858900"},{"name":"白朗县","zipcode":"857300"},{"name":"仁布县","zipcode":"857200"},{"name":"康马县","zipcode":"857500"},{"name":"定结县","zipcode":"857900"},{"name":"仲巴县","zipcode":"858800"},{"name":"亚东县","zipcode":"857600"},{"name":"吉隆县","zipcode":"858700"},{"name":"聂拉木县","zipcode":"858300"},{"name":"萨嘎县","zipcode":"857800"},{"name":"岗巴县","zipcode":"857700"}]},{"name":"昌都市","area":[{"name":"卡若区","zipcode":"854000"},{"name":"江达县","zipcode":"854100"},{"name":"贡觉县","zipcode":"854200"},{"name":"类乌齐县","zipcode":"855600"},{"name":"丁青县","zipcode":"855700"},{"name":"察雅县","zipcode":"854300"},{"name":"八宿县","zipcode":"854600"},{"name":"左贡县","zipcode":"854400"},{"name":"芒康县","zipcode":"854500"},{"name":"洛隆县","zipcode":"855400"},{"name":"边坝县","zipcode":"855500"}]},{"name":"林芝市","area":[{"name":"巴宜区","zipcode":"850400"},{"name":"工布江达县","zipcode":"850300"},{"name":"米林县","zipcode":"850500"},{"name":"墨脱县","zipcode":"855300"},{"name":"波密县","zipcode":"855200"},{"name":"察隅县","zipcode":"855100"},{"name":"朗县","zipcode":"856500"}]},{"name":"山南市","area":[{"name":"乃东区","zipcode":"856100"},{"name":"扎囊县","zipcode":"850800"},{"name":"贡嘎县","zipcode":"850700"},{"name":"桑日县","zipcode":"856200"},{"name":"琼结县","zipcode":"856800"},{"name":"曲松县","zipcode":"856300"},{"name":"措美县","zipcode":"856900"},{"name":"洛扎县","zipcode":"856600"},{"name":"加查县","zipcode":"856400"},{"name":"隆子县","zipcode":"856600"},{"name":"错那县","zipcode":"856700"},{"name":"浪卡子县","zipcode":"851100"}]},{"name":"那曲地区","area":[{"name":"那曲县","zipcode":"852000"},{"name":"嘉黎县","zipcode":"852400"},{"name":"比如县","zipcode":"852300"},{"name":"聂荣县","zipcode":"853500"},{"name":"安多县","zipcode":"853400"},{"name":"申扎县","zipcode":"853100"},{"name":"索县","zipcode":"852200"},{"name":"班戈县","zipcode":"852500"},{"name":"巴青县","zipcode":"852100"},{"name":"尼玛县","zipcode":"852600"},{"name":"双湖县","zipcode":"852600"}]},{"name":"阿里地区","area":[{"name":"噶尔县","zipcode":"859400"},{"name":"普兰县","zipcode":"859500"},{"name":"札达县","zipcode":"859600"},{"name":"日土县","zipcode":"859700"},{"name":"革吉县","zipcode":"859100"},{"name":"改则县","zipcode":"859200"},{"name":"措勤县","zipcode":"859300"}]}]},{"name":"陕西省","city":[{"name":"西安市","area":[{"name":"未央区","zipcode":"710014"},{"name":"新城区","zipcode":"010050"},{"name":"碑林区","zipcode":"710001"},{"name":"莲湖区","zipcode":"710003"},{"name":"灞桥区","zipcode":"710038"},{"name":"雁塔区","zipcode":"710061"},{"name":"阎良区","zipcode":"710087"},{"name":"临潼区","zipcode":"710600"},{"name":"长安区","zipcode":"050011"},{"name":"高陵区","zipcode":"710200"},{"name":"鄠邑区","zipcode":"710300"},{"name":"蓝田县","zipcode":"710500"},{"name":"周至县","zipcode":"710400"}]},{"name":"铜川市","area":[{"name":"耀州区","zipcode":"727100"},{"name":"王益区","zipcode":"727000"},{"name":"印台区","zipcode":"727007"},{"name":"宜君县","zipcode":"727200"}]},{"name":"宝鸡市","area":[{"name":"金台区","zipcode":"721000"},{"name":"渭滨区","zipcode":"721000"},{"name":"陈仓区","zipcode":"721300"},{"name":"凤翔县","zipcode":"721400"},{"name":"岐山县","zipcode":"722400"},{"name":"扶风县","zipcode":"722200"},{"name":"眉县","zipcode":"722300"},{"name":"陇县","zipcode":"721200"},{"name":"千阳县","zipcode":"721100"},{"name":"麟游县","zipcode":"721500"},{"name":"凤县","zipcode":"721700"},{"name":"太白县","zipcode":"721600"}]},{"name":"咸阳市","area":[{"name":"秦都区","zipcode":"712000"},{"name":"杨陵区","zipcode":"712100"},{"name":"渭城区","zipcode":"712000"},{"name":"兴平市","zipcode":"713100"},{"name":"三原县","zipcode":"713800"},{"name":"泾阳县","zipcode":"713700"},{"name":"乾县","zipcode":"713300"},{"name":"礼泉县","zipcode":"713200"},{"name":"永寿县","zipcode":"713400"},{"name":"彬县","zipcode":"713500"},{"name":"长武县","zipcode":"713600"},{"name":"旬邑县","zipcode":"711300"},{"name":"淳化县","zipcode":"711200"},{"name":"武功县","zipcode":"712200"}]},{"name":"渭南市","area":[{"name":"临渭区","zipcode":"714000"},{"name":"韩城市","zipcode":"715400"},{"name":"华阴市","zipcode":"714200"},{"name":"华州区","zipcode":"714100"},{"name":"潼关县","zipcode":"714300"},{"name":"大荔县","zipcode":"715100"},{"name":"合阳县","zipcode":"715300"},{"name":"澄城县","zipcode":"715200"},{"name":"蒲城县","zipcode":"715500"},{"name":"白水县","zipcode":"715600"},{"name":"富平县","zipcode":"711700"}]},{"name":"延安市","area":[{"name":"宝塔区","zipcode":"716000"},{"name":"安塞区","zipcode":"717400"},{"name":"延长县","zipcode":"717100"},{"name":"延川县","zipcode":"717200"},{"name":"子长县","zipcode":"717300"},{"name":"志丹县","zipcode":"717500"},{"name":"吴起县","zipcode":"717600"},{"name":"甘泉县","zipcode":"716100"},{"name":"富县","zipcode":"727500"},{"name":"洛川县","zipcode":"727400"},{"name":"宜川县","zipcode":"716200"},{"name":"黄龙县","zipcode":"715700"},{"name":"黄陵县","zipcode":"727300"}]},{"name":"汉中市","area":[{"name":"汉台区","zipcode":"723000"},{"name":"南郑县","zipcode":"723100"},{"name":"城固县","zipcode":"723200"},{"name":"洋县","zipcode":"723300"},{"name":"西乡县","zipcode":"723500"},{"name":"勉县","zipcode":"724200"},{"name":"宁强县","zipcode":"724400"},{"name":"略阳县","zipcode":"724300"},{"name":"镇巴县","zipcode":"723600"},{"name":"留坝县","zipcode":"724100"},{"name":"佛坪县","zipcode":"723400"}]},{"name":"榆林市","area":[{"name":"榆阳区","zipcode":"719000"},{"name":"神木市","zipcode":"719300"},{"name":"府谷县","zipcode":"719400"},{"name":"横山区","zipcode":"719100"},{"name":"靖边县","zipcode":"718500"},{"name":"定边县","zipcode":"718600"},{"name":"绥德县","zipcode":"718000"},{"name":"米脂县","zipcode":"718100"},{"name":"佳县","zipcode":"719200"},{"name":"吴堡县","zipcode":"718200"},{"name":"清涧县","zipcode":"718300"},{"name":"子洲县","zipcode":"718400"}]},{"name":"安康市","area":[{"name":"汉滨区","zipcode":"725000"},{"name":"汉阴县","zipcode":"725100"},{"name":"石泉县","zipcode":"725200"},{"name":"宁陕县","zipcode":"711600"},{"name":"紫阳县","zipcode":"725300"},{"name":"岚皋县","zipcode":"725400"},{"name":"平利县","zipcode":"725500"},{"name":"镇坪县","zipcode":"725600"},{"name":"旬阳县","zipcode":"725700"},{"name":"白河县","zipcode":"725800"}]},{"name":"商洛市","area":[{"name":"商州区","zipcode":"726000"},{"name":"洛南县","zipcode":"726100"},{"name":"丹凤县","zipcode":"726200"},{"name":"商南县","zipcode":"726300"},{"name":"山阳县","zipcode":"726400"},{"name":"镇安县","zipcode":"711500"},{"name":"柞水县","zipcode":"711400"}]}]},{"name":"甘肃省","city":[{"name":"兰州市","area":[{"name":"城关区","zipcode":"850000"},{"name":"七里河区","zipcode":"730050"},{"name":"西固区","zipcode":"730060"},{"name":"安宁区","zipcode":"730070"},{"name":"红古区","zipcode":"730084"},{"name":"永登县","zipcode":"730300"},{"name":"皋兰县","zipcode":"730200"},{"name":"榆中县","zipcode":"730100"}]},{"name":"嘉峪关市","area":[{"name":"嘉峪关市","zipcode":"735100"}]},{"name":"金昌市","area":[{"name":"金川区","zipcode":"737100"},{"name":"永昌县","zipcode":"737200"}]},{"name":"白银市","area":[{"name":"白银区","zipcode":"730900"},{"name":"平川区","zipcode":"730913"},{"name":"靖远县","zipcode":"730600"},{"name":"会宁县","zipcode":"730700"},{"name":"景泰县","zipcode":"730400"}]},{"name":"天水市","area":[{"name":"秦州区","zipcode":"741000"},{"name":"麦积区","zipcode":"741020"},{"name":"清水县","zipcode":"741400"},{"name":"秦安县","zipcode":"741600"},{"name":"甘谷县","zipcode":"741200"},{"name":"武山县","zipcode":"741300"},{"name":"张家川回族自治县","zipcode":"741500"}]},{"name":"武威市","area":[{"name":"凉州区","zipcode":"733000"},{"name":"民勤县","zipcode":"733300"},{"name":"古浪县","zipcode":"733100"},{"name":"天祝藏族自治县","zipcode":"733200"}]},{"name":"张掖市","area":[{"name":"甘州区","zipcode":"734000"},{"name":"民乐县","zipcode":"734500"},{"name":"临泽县","zipcode":"734200"},{"name":"高台县","zipcode":"734300"},{"name":"山丹县","zipcode":"734100"},{"name":"肃南裕固族自治县","zipcode":"734400"}]},{"name":"平凉市","area":[{"name":"崆峒区","zipcode":"744000"},{"name":"泾川县","zipcode":"744300"},{"name":"灵台县","zipcode":"744400"},{"name":"崇信县","zipcode":"744200"},{"name":"华亭县","zipcode":"744100"},{"name":"庄浪县","zipcode":"744600"},{"name":"静宁县","zipcode":"743400"}]},{"name":"酒泉市","area":[{"name":"肃州区","zipcode":"735000"},{"name":"玉门市","zipcode":"735200"},{"name":"敦煌市","zipcode":"736200"},{"name":"金塔县","zipcode":"735300"},{"name":"瓜州县","zipcode":"736100"},{"name":"肃北蒙古族自治县","zipcode":"736300"},{"name":"阿克塞哈萨克族自治县","zipcode":"736400"}]},{"name":"庆阳市","area":[{"name":"西峰区","zipcode":"745000"},{"name":"庆城县","zipcode":"745100"},{"name":"环县","zipcode":"745700"},{"name":"华池县","zipcode":"745600"},{"name":"合水县","zipcode":"745400"},{"name":"正宁县","zipcode":"745300"},{"name":"宁县","zipcode":"745200"},{"name":"镇原县","zipcode":"744500"}]},{"name":"定西市","area":[{"name":"安定区","zipcode":"743000"},{"name":"通渭县","zipcode":"743300"},{"name":"陇西县","zipcode":"748100"},{"name":"渭源县","zipcode":"748200"},{"name":"临洮县","zipcode":"730500"},{"name":"漳县","zipcode":"748300"},{"name":"岷县","zipcode":"748400"}]},{"name":"陇南市","area":[{"name":"武都区","zipcode":"746000"},{"name":"成县","zipcode":"742500"},{"name":"文县","zipcode":"746400"},{"name":"宕昌县","zipcode":"748500"},{"name":"康县","zipcode":"746500"},{"name":"西和县","zipcode":"742100"},{"name":"礼县","zipcode":"742200"},{"name":"徽县","zipcode":"742300"},{"name":"两当县","zipcode":"742400"}]},{"name":"临夏回族自治州","area":[{"name":"临夏市","zipcode":"731100"},{"name":"临夏县","zipcode":"731800"},{"name":"康乐县","zipcode":"731500"},{"name":"永靖县","zipcode":"731600"},{"name":"广河县","zipcode":"731300"},{"name":"和政县","zipcode":"731200"},{"name":"东乡族自治县","zipcode":"731400"},{"name":"积石山保安族东乡族撒拉族自治县","zipcode":"731700"}]},{"name":"甘南藏族自治州","area":[{"name":"合作市","zipcode":"747000"},{"name":"临潭县","zipcode":"747500"},{"name":"卓尼县","zipcode":"747600"},{"name":"舟曲县","zipcode":"746300"},{"name":"迭部县","zipcode":"747400"},{"name":"玛曲县","zipcode":"747300"},{"name":"碌曲县","zipcode":"747200"},{"name":"夏河县","zipcode":"747100"}]}]},{"name":"青海省","city":[{"name":"西宁市","area":[{"name":"城中区","zipcode":"545001"},{"name":"城东区","zipcode":"810007"},{"name":"城西区","zipcode":"810001"},{"name":"城北区","zipcode":"810003"},{"name":"湟中县","zipcode":"811600"},{"name":"湟源县","zipcode":"812100"},{"name":"大通回族土族自治县","zipcode":"810100"}]},{"name":"海东市","area":[{"name":"乐都区","zipcode":"810700"},{"name":"平安区","zipcode":"810600"},{"name":"民和回族土族自治县","zipcode":"810800"},{"name":"互助土族自治县","zipcode":"810500"},{"name":"化隆回族自治县","zipcode":"810900"},{"name":"循化撒拉族自治县","zipcode":"811100"}]},{"name":"海北藏族自治州","area":[{"name":"海晏县","zipcode":"812200"},{"name":"祁连县","zipcode":"810400"},{"name":"刚察县","zipcode":"812300"},{"name":"门源回族自治县","zipcode":"810300"}]},{"name":"黄南藏族自治州","area":[{"name":"同仁县","zipcode":"811300"},{"name":"尖扎县","zipcode":"811200"},{"name":"泽库县","zipcode":"811400"},{"name":"河南蒙古族自治县","zipcode":"811500"}]},{"name":"海南藏族自治州","area":[{"name":"共和县","zipcode":"813000"},{"name":"同德县","zipcode":"813200"},{"name":"贵德县","zipcode":"811700"},{"name":"兴海县","zipcode":"813300"},{"name":"贵南县","zipcode":"813100"}]},{"name":"果洛藏族自治州","area":[{"name":"玛沁县","zipcode":"814000"},{"name":"班玛县","zipcode":"814300"},{"name":"甘德县","zipcode":"814100"},{"name":"达日县","zipcode":"814200"},{"name":"久治县","zipcode":"624700"},{"name":"玛多县","zipcode":"813500"}]},{"name":"玉树藏族自治州","area":[{"name":"玉树市","zipcode":"815000"},{"name":"杂多县","zipcode":"815300"},{"name":"称多县","zipcode":"815100"},{"name":"治多县","zipcode":"815400"},{"name":"囊谦县","zipcode":"815200"},{"name":"曲麻莱县","zipcode":"815500"}]},{"name":"海西蒙古族藏族自治州","area":[{"name":"德令哈市","zipcode":"817000"},{"name":"格尔木市","zipcode":"816000"},{"name":"乌兰县","zipcode":"817100"},{"name":"都兰县","zipcode":"816100"},{"name":"天峻县","zipcode":"817200"}]}]},{"name":"宁夏回族自治区","city":[{"name":"银川市","area":[{"name":"金凤区","zipcode":"750011"},{"name":"兴庆区","zipcode":"750001"},{"name":"西夏区","zipcode":"750021"},{"name":"灵武市","zipcode":"750004"},{"name":"永宁县","zipcode":"750100"},{"name":"贺兰县","zipcode":"750200"}]},{"name":"石嘴山市","area":[{"name":"大武口区","zipcode":"753000"},{"name":"惠农区","zipcode":"753600"},{"name":"平罗县","zipcode":"753400"}]},{"name":"吴忠市","area":[{"name":"利通区","zipcode":"751100"},{"name":"红寺堡区","zipcode":"751900"},{"name":"青铜峡市","zipcode":"751600"},{"name":"盐池县","zipcode":"751500"},{"name":"同心县","zipcode":"751300"}]},{"name":"固原市","area":[{"name":"原州区","zipcode":"756000"},{"name":"西吉县","zipcode":"756200"},{"name":"隆德县","zipcode":"756300"},{"name":"泾源县","zipcode":"756400"},{"name":"彭阳县","zipcode":"756500"}]},{"name":"中卫市","area":[{"name":"沙坡头区","zipcode":"755000"},{"name":"中宁县","zipcode":"751200"},{"name":"海原县","zipcode":"751800"}]}]},{"name":"新疆维吾尔自治区","city":[{"name":"乌鲁木齐市","area":[{"name":"天山区","zipcode":"830002"},{"name":"沙依巴克区","zipcode":"830000"},{"name":"新市区","zipcode":"830011"},{"name":"水磨沟区","zipcode":"830017"},{"name":"头屯河区","zipcode":"830022"},{"name":"达坂城区","zipcode":"830039"},{"name":"米东区","zipcode":"830019"},{"name":"乌鲁木齐县","zipcode":"830063"}]},{"name":"克拉玛依市","area":[{"name":"克拉玛依区","zipcode":"834000"},{"name":"独山子区","zipcode":"834021"},{"name":"白碱滩区","zipcode":"834008"},{"name":"乌尔禾区","zipcode":"834012"}]},{"name":"吐鲁番市","area":[{"name":"高昌区","zipcode":"838000"},{"name":"鄯善县","zipcode":"838200"},{"name":"托克逊县","zipcode":"838100"}]},{"name":"哈密市","area":[{"name":"伊州区","zipcode":"839000"},{"name":"伊吾县","zipcode":"839300"},{"name":"巴里坤哈萨克自治县","zipcode":"839200"}]},{"name":"阿克苏地区","area":[{"name":"阿克苏市","zipcode":"843000"},{"name":"温宿县","zipcode":"843100"},{"name":"库车县","zipcode":"842000"},{"name":"沙雅县","zipcode":"842200"},{"name":"新和县","zipcode":"842100"},{"name":"拜城县","zipcode":"842300"},{"name":"乌什县","zipcode":"843400"},{"name":"阿瓦提县","zipcode":"843200"},{"name":"柯坪县","zipcode":"843600"}]},{"name":"喀什地区","area":[{"name":"喀什市","zipcode":"844000"},{"name":"疏附县","zipcode":"844100"},{"name":"疏勒县","zipcode":"844200"},{"name":"英吉沙县","zipcode":"844500"},{"name":"泽普县","zipcode":"844800"},{"name":"莎车县","zipcode":"844700"},{"name":"叶城县","zipcode":"844900"},{"name":"麦盖提县","zipcode":"844600"},{"name":"岳普湖县","zipcode":"844400"},{"name":"伽师县","zipcode":"844300"},{"name":"巴楚县","zipcode":"843800"},{"name":"塔什库尔干塔吉克自治县","zipcode":"845250"}]},{"name":"和田地区","area":[{"name":"和田市","zipcode":"848000"},{"name":"和田县","zipcode":"848000"},{"name":"墨玉县","zipcode":"848100"},{"name":"皮山县","zipcode":"845150"},{"name":"洛浦县","zipcode":"848200"},{"name":"策勒县","zipcode":"848300"},{"name":"于田县","zipcode":"848400"},{"name":"民丰县","zipcode":"848500"}]},{"name":"昌吉回族自治州","area":[{"name":"昌吉市","zipcode":"831100"},{"name":"阜康市","zipcode":"831500"},{"name":"呼图壁县","zipcode":"831200"},{"name":"玛纳斯县","zipcode":"832200"},{"name":"奇台县","zipcode":"831800"},{"name":"吉木萨尔县","zipcode":"831700"},{"name":"木垒哈萨克自治县","zipcode":"831900"}]},{"name":"博尔塔拉蒙古自治州","area":[{"name":"博乐市","zipcode":"833400"},{"name":"阿拉山口市","zipcode":"833400"},{"name":"精河县","zipcode":"833300"},{"name":"温泉县","zipcode":"833500"}]},{"name":"巴音郭楞蒙古自治州","area":[{"name":"库尔勒市","zipcode":"841000"},{"name":"轮台县","zipcode":"841600"},{"name":"尉犁县","zipcode":"841500"},{"name":"若羌县","zipcode":"841800"},{"name":"且末县","zipcode":"841900"},{"name":"和静县","zipcode":"841300"},{"name":"和硕县","zipcode":"841200"},{"name":"博湖县","zipcode":"841400"},{"name":"焉耆回族自治县","zipcode":"841100"}]},{"name":"克孜勒苏柯尔克孜自治州","area":[{"name":"阿图什市","zipcode":"845350"},{"name":"阿克陶县","zipcode":"845550"},{"name":"阿合奇县","zipcode":"843500"},{"name":"乌恰县","zipcode":"845450"}]},{"name":"伊犁哈萨克自治州","area":[{"name":"伊宁市","zipcode":"835000"},{"name":"奎屯市","zipcode":"833200"},{"name":"霍尔果斯市","zipcode":"835221"},{"name":"伊宁县","zipcode":"835100"},{"name":"霍城县","zipcode":"835200"},{"name":"巩留县","zipcode":"835400"},{"name":"新源县","zipcode":"835800"},{"name":"昭苏县","zipcode":"835600"},{"name":"特克斯县","zipcode":"835500"},{"name":"尼勒克县","zipcode":"835700"},{"name":"察布查尔锡伯自治县","zipcode":"835300"}]},{"name":"塔城地区","area":[{"name":"塔城市","zipcode":"834700"},{"name":"乌苏市","zipcode":"833000"},{"name":"额敏县","zipcode":"834600"},{"name":"沙湾县","zipcode":"832100"},{"name":"托里县","zipcode":"834500"},{"name":"裕民县","zipcode":"834800"},{"name":"和布克赛尔蒙古自治县","zipcode":"834400"}]},{"name":"阿勒泰地区","area":[{"name":"阿勒泰市","zipcode":"836500"},{"name":"布尔津县","zipcode":"836600"},{"name":"富蕴县","zipcode":"836100"},{"name":"福海县","zipcode":"836400"},{"name":"哈巴河县","zipcode":"836700"},{"name":"青河县","zipcode":"836200"},{"name":"吉木乃县","zipcode":"836800"}]},{"name":"自治区直辖县级行政单位","area":[{"name":"石河子市","zipcode":"832000"},{"name":"阿拉尔市","zipcode":"843300"},{"name":"图木舒克市","zipcode":"843806"},{"name":"五家渠市","zipcode":"831300"},{"name":"北屯市","zipcode":"836000"},{"name":"铁门关市","zipcode":"836000"},{"name":"双河市","zipcode":"833408"},{"name":"可克达拉市","zipcode":"835219"},{"name":"昆玉市","zipcode":"848116"}]}]}]